[
  {
    "name": "Afghanistan",
    "native_name": "افغانستان",
    "alpha2_code": "AF",
    "numeric_code": 4,
    "capital": "Kabul",
    "region": "Asia",
    "lat_long": [
      33,
      65
    ],
    "languages": [
      {
        "iso_code": "ps",
        "name": "Pashto",
        "native_name": "پښتو"
      },
      {
        "iso_code": "uz",
        "name": "Uzbek",
        "native_name": "Oʻzbek"
      },
      {
        "iso_code": "tk",
        "name": "Turkmen",
        "native_name": "Türkmen"
      }
    ],
    "translations": {
      "de": "Afghanistan",
      "es": "Afganistán",
      "fr": "Afghanistan",
      "ja": "アフガニスタン",
      "it": "Afghanistan",
      "br": "Afeganistão",
      "pt": "Afeganistão",
      "nl": "Afghanistan",
      "hr": "Afganistan",
      "fa": "افغانستان",
      "tr": "Afganistan"
    }
  },
  {
    "name": "Åland Islands",
    "native_name": "Åland",
    "alpha2_code": "AX",
    "numeric_code": 248,
    "capital": "Mariehamn",
    "region": "Europe",
    "lat_long": [
      60.116667,
      19.9
    ],
    "languages": [
      {
        "iso_code": "sv",
        "name": "Swedish",
        "native_name": "svenska"
      }
    ],
    "translations": {
      "de": "Åland",
      "es": "Alandia",
      "fr": "Åland",
      "ja": "オーランド諸島",
      "it": "Isole Aland",
      "br": "Ilhas de Aland",
      "pt": "Ilhas de Aland",
      "nl": "Ålandeilanden",
      "hr": "Ålandski otoci",
      "fa": "جزایر الند",
      "tr": "Åland Adaları"
    }
  },
  {
    "name": "Albania",
    "native_name": "Shqipëria",
    "alpha2_code": "AL",
    "numeric_code": 8,
    "capital": "Tirana",
    "region": "Europe",
    "lat_long": [
      41,
      20
    ],
    "languages": [
      {
        "iso_code": "sq",
        "name": "Albanian",
        "native_name": "Shqip"
      }
    ],
    "translations": {
      "de": "Albanien",
      "es": "Albania",
      "fr": "Albanie",
      "ja": "アルバニア",
      "it": "Albania",
      "br": "Albânia",
      "pt": "Albânia",
      "nl": "Albanië",
      "hr": "Albanija",
      "fa": "آلبانی",
      "tr": "Arnavutluk"
    }
  },
  {
    "name": "Algeria",
    "native_name": "الجزائر",
    "alpha2_code": "DZ",
    "numeric_code": 12,
    "capital": "Algiers",
    "region": "Africa",
    "lat_long": [
      28,
      3
    ],
    "languages": [
      {
        "iso_code": "ar",
        "name": "Arabic",
        "native_name": "العربية"
      }
    ],
    "translations": {
      "de": "Algerien",
      "es": "Argelia",
      "fr": "Algérie",
      "ja": "アルジェリア",
      "it": "Algeria",
      "br": "Argélia",
      "pt": "Argélia",
      "nl": "Algerije",
      "hr": "Alžir",
      "fa": "الجزایر",
      "tr": "Cezayir"
    }
  },
  {
    "name": "American Samoa",
    "native_name": "American Samoa",
    "alpha2_code": "AS",
    "numeric_code": 16,
    "capital": "Pago Pago",
    "region": "Oceania",
    "lat_long": [
      -14.33333333,
      -170
    ],
    "languages": [
      {
        "iso_code": "en",
        "name": "English",
        "native_name": "English"
      },
      {
        "iso_code": "sm",
        "name": "Samoan",
        "native_name": "gagana fa'a Samoa"
      }
    ],
    "translations": {
      "de": "Amerikanisch-Samoa",
      "es": "Samoa Americana",
      "fr": "Samoa américaines",
      "ja": "アメリカ領サモア",
      "it": "Samoa Americane",
      "br": "Samoa Americana",
      "pt": "Samoa Americana",
      "nl": "Amerikaans Samoa",
      "hr": "Američka Samoa",
      "fa": "ساموآی آمریکا",
      "tr": "Amerikan Samoası"
    }
  },
  {
    "name": "Andorra",
    "native_name": "Andorra",
    "alpha2_code": "AD",
    "numeric_code": 20,
    "capital": "Andorra la Vella",
    "region": "Europe",
    "lat_long": [
      42.5,
      1.5
    ],
    "languages": [
      {
        "iso_code": "ca",
        "name": "Catalan",
        "native_name": "català"
      }
    ],
    "translations": {
      "de": "Andorra",
      "es": "Andorra",
      "fr": "Andorre",
      "ja": "アンドラ",
      "it": "Andorra",
      "br": "Andorra",
      "pt": "Andorra",
      "nl": "Andorra",
      "hr": "Andora",
      "fa": "آندورا",
      "tr": "Andorra"
    }
  },
  {
    "name": "Angola",
    "native_name": "Angola",
    "alpha2_code": "AO",
    "numeric_code": 24,
    "capital": "Luanda",
    "region": "Africa",
    "lat_long": [
      -12.5,
      18.5
    ],
    "languages": [
      {
        "iso_code": "pt",
        "name": "Portuguese",
        "native_name": "Português"
      }
    ],
    "translations": {
      "de": "Angola",
      "es": "Angola",
      "fr": "Angola",
      "ja": "アンゴラ",
      "it": "Angola",
      "br": "Angola",
      "pt": "Angola",
      "nl": "Angola",
      "hr": "Angola",
      "fa": "آنگولا",
      "tr": "Angola"
    }
  },
  {
    "name": "Anguilla",
    "native_name": "Anguilla",
    "alpha2_code": "AI",
    "numeric_code": 660,
    "capital": "The Valley",
    "region": "Americas",
    "lat_long": [
      18.25,
      -63.16666666
    ],
    "languages": [
      {
        "iso_code": "en",
        "name": "English",
        "native_name": "English"
      }
    ],
    "translations": {
      "de": "Anguilla",
      "es": "Anguilla",
      "fr": "Anguilla",
      "ja": "アンギラ",
      "it": "Anguilla",
      "br": "Anguila",
      "pt": "Anguila",
      "nl": "Anguilla",
      "hr": "Angvila",
      "fa": "آنگویلا",
      "tr": "Anguilla"
    }
  },
  {
    "name": "Antarctica",
    "native_name": "Antarctica",
    "alpha2_code": "AQ",
    "numeric_code": 10,
    "capital": null,
    "region": "Polar",
    "lat_long": [
      -74.65,
      4.48
    ],
    "languages": [
      {
        "iso_code": "en",
        "name": "English",
        "native_name": "English"
      },
      {
        "iso_code": "ru",
        "name": "Russian",
        "native_name": "Русский"
      }
    ],
    "translations": {
      "de": "Antarktika",
      "es": "Antártida",
      "fr": "Antarctique",
      "ja": "南極大陸",
      "it": "Antartide",
      "br": "Antártida",
      "pt": "Antárctida",
      "nl": "Antarctica",
      "hr": "Antarktika",
      "fa": "جنوبگان",
      "tr": "Antarktika"
    }
  },
  {
    "name": "Antigua and Barbuda",
    "native_name": "Antigua and Barbuda",
    "alpha2_code": "AG",
    "numeric_code": 28,
    "capital": "Saint John's",
    "region": "Americas",
    "lat_long": [
      17.05,
      -61.8
    ],
    "languages": [
      {
        "iso_code": "en",
        "name": "English",
        "native_name": "English"
      }
    ],
    "translations": {
      "de": "Antigua und Barbuda",
      "es": "Antigua y Barbuda",
      "fr": "Antigua-et-Barbuda",
      "ja": "アンティグア・バーブーダ",
      "it": "Antigua e Barbuda",
      "br": "Antígua e Barbuda",
      "pt": "Antígua e Barbuda",
      "nl": "Antigua en Barbuda",
      "hr": "Antigva i Barbuda",
      "fa": "آنتیگوا و باربودا",
      "tr": "Antigua ve Barbuda"
    }
  },
  {
    "name": "Argentina",
    "native_name": "Argentina",
    "alpha2_code": "AR",
    "numeric_code": 32,
    "capital": "Buenos Aires",
    "region": "Americas",
    "lat_long": [
      -34,
      -64
    ],
    "languages": [
      {
        "iso_code": "es",
        "name": "Spanish",
        "native_name": "Español"
      },
      {
        "iso_code": "gn",
        "name": "Guaraní",
        "native_name": "Avañe'ẽ"
      }
    ],
    "translations": {
      "de": "Argentinien",
      "es": "Argentina",
      "fr": "Argentine",
      "ja": "アルゼンチン",
      "it": "Argentina",
      "br": "Argentina",
      "pt": "Argentina",
      "nl": "Argentinië",
      "hr": "Argentina",
      "fa": "آرژانتین",
      "tr": "Arjantin"
    }
  },
  {
    "name": "Armenia",
    "native_name": "Հայաստան",
    "alpha2_code": "AM",
    "numeric_code": 51,
    "capital": "Yerevan",
    "region": "Asia",
    "lat_long": [
      40,
      45
    ],
    "languages": [
      {
        "iso_code": "hy",
        "name": "Armenian",
        "native_name": "Հայերեն"
      },
      {
        "iso_code": "ru",
        "name": "Russian",
        "native_name": "Русский"
      }
    ],
    "translations": {
      "de": "Armenien",
      "es": "Armenia",
      "fr": "Arménie",
      "ja": "アルメニア",
      "it": "Armenia",
      "br": "Armênia",
      "pt": "Arménia",
      "nl": "Armenië",
      "hr": "Armenija",
      "fa": "ارمنستان",
      "tr": "Ermenistan"
    }
  },
  {
    "name": "Aruba",
    "native_name": "Aruba",
    "alpha2_code": "AW",
    "numeric_code": 533,
    "capital": "Oranjestad",
    "region": "Americas",
    "lat_long": [
      12.5,
      -69.96666666
    ],
    "languages": [
      {
        "iso_code": "nl",
        "name": "Dutch",
        "native_name": "Nederlands"
      },
      {
        "iso_code": "pa",
        "name": "(Eastern) Punjabi",
        "native_name": "ਪੰਜਾਬੀ"
      }
    ],
    "translations": {
      "de": "Aruba",
      "es": "Aruba",
      "fr": "Aruba",
      "ja": "アルバ",
      "it": "Aruba",
      "br": "Aruba",
      "pt": "Aruba",
      "nl": "Aruba",
      "hr": "Aruba",
      "fa": "آروبا",
      "tr": "Aruba"
    }
  },
  {
    "name": "Australia",
    "native_name": "Australia",
    "alpha2_code": "AU",
    "numeric_code": 36,
    "capital": "Canberra",
    "region": "Oceania",
    "lat_long": [
      -27,
      133
    ],
    "languages": [
      {
        "iso_code": "en",
        "name": "English",
        "native_name": "English"
      }
    ],
    "translations": {
      "de": "Australien",
      "es": "Australia",
      "fr": "Australie",
      "ja": "オーストラリア",
      "it": "Australia",
      "br": "Austrália",
      "pt": "Austrália",
      "nl": "Australië",
      "hr": "Australija",
      "fa": "استرالیا",
      "tr": "Avustralya"
    }
  },
  {
    "name": "Austria",
    "native_name": "Österreich",
    "alpha2_code": "AT",
    "numeric_code": 40,
    "capital": "Vienna",
    "region": "Europe",
    "lat_long": [
      47.33333333,
      13.33333333
    ],
    "languages": [
      {
        "iso_code": "de",
        "name": "German",
        "native_name": "Deutsch"
      }
    ],
    "translations": {
      "de": "Österreich",
      "es": "Austria",
      "fr": "Autriche",
      "ja": "オーストリア",
      "it": "Austria",
      "br": "áustria",
      "pt": "áustria",
      "nl": "Oostenrijk",
      "hr": "Austrija",
      "fa": "اتریش",
      "tr": "Avusturya"
    }
  },
  {
    "name": "Azerbaijan",
    "native_name": "Azərbaycan",
    "alpha2_code": "AZ",
    "numeric_code": 31,
    "capital": "Baku",
    "region": "Asia",
    "lat_long": [
      40.5,
      47.5
    ],
    "languages": [
      {
        "iso_code": "az",
        "name": "Azerbaijani",
        "native_name": "azərbaycan dili"
      }
    ],
    "translations": {
      "de": "Aserbaidschan",
      "es": "Azerbaiyán",
      "fr": "Azerbaïdjan",
      "ja": "アゼルバイジャン",
      "it": "Azerbaijan",
      "br": "Azerbaijão",
      "pt": "Azerbaijão",
      "nl": "Azerbeidzjan",
      "hr": "Azerbajdžan",
      "fa": "آذربایجان",
      "tr": "Azerbaycan"
    }
  },
  {
    "name": "Bahamas",
    "native_name": "Bahamas",
    "alpha2_code": "BS",
    "numeric_code": 44,
    "capital": "Nassau",
    "region": "Americas",
    "lat_long": [
      24.25,
      -76
    ],
    "languages": [
      {
        "iso_code": "en",
        "name": "English",
        "native_name": "English"
      }
    ],
    "translations": {
      "de": "Bahamas",
      "es": "Bahamas",
      "fr": "Bahamas",
      "ja": "バハマ",
      "it": "Bahamas",
      "br": "Bahamas",
      "pt": "Baamas",
      "nl": "Bahama’s",
      "hr": "Bahami",
      "fa": "باهاما",
      "tr": "Bahamalar"
    }
  },
  {
    "name": "Bahrain",
    "native_name": "‏البحرين",
    "alpha2_code": "BH",
    "numeric_code": 48,
    "capital": "Manama",
    "region": "Asia",
    "lat_long": [
      26,
      50.55
    ],
    "languages": [
      {
        "iso_code": "ar",
        "name": "Arabic",
        "native_name": "العربية"
      }
    ],
    "translations": {
      "de": "Bahrain",
      "es": "Bahrein",
      "fr": "Bahreïn",
      "ja": "バーレーン",
      "it": "Bahrein",
      "br": "Bahrein",
      "pt": "Barém",
      "nl": "Bahrein",
      "hr": "Bahrein",
      "fa": "بحرین",
      "tr": "Bahreyn"
    }
  },
  {
    "name": "Bangladesh",
    "native_name": "Bangladesh",
    "alpha2_code": "BD",
    "numeric_code": 50,
    "capital": "Dhaka",
    "region": "Asia",
    "lat_long": [
      24,
      90
    ],
    "languages": [
      {
        "iso_code": "bn",
        "name": "Bengali",
        "native_name": "বাংলা"
      }
    ],
    "translations": {
      "de": "Bangladesch",
      "es": "Bangladesh",
      "fr": "Bangladesh",
      "ja": "バングラデシュ",
      "it": "Bangladesh",
      "br": "Bangladesh",
      "pt": "Bangladeche",
      "nl": "Bangladesh",
      "hr": "Bangladeš",
      "fa": "بنگلادش",
      "tr": "Bangladeş"
    }
  },
  {
    "name": "Barbados",
    "native_name": "Barbados",
    "alpha2_code": "BB",
    "numeric_code": 52,
    "capital": "Bridgetown",
    "region": "Americas",
    "lat_long": [
      13.16666666,
      -59.53333333
    ],
    "languages": [
      {
        "iso_code": "en",
        "name": "English",
        "native_name": "English"
      }
    ],
    "translations": {
      "de": "Barbados",
      "es": "Barbados",
      "fr": "Barbade",
      "ja": "バルバドス",
      "it": "Barbados",
      "br": "Barbados",
      "pt": "Barbados",
      "nl": "Barbados",
      "hr": "Barbados",
      "fa": "باربادوس",
      "tr": "Barbados"
    }
  },
  {
    "name": "Belarus",
    "native_name": "Белару́сь",
    "alpha2_code": "BY",
    "numeric_code": 112,
    "capital": "Minsk",
    "region": "Europe",
    "lat_long": [
      53,
      28
    ],
    "languages": [
      {
        "iso_code": "be",
        "name": "Belarusian",
        "native_name": "беларуская мова"
      },
      {
        "iso_code": "ru",
        "name": "Russian",
        "native_name": "Русский"
      }
    ],
    "translations": {
      "de": "Weißrussland",
      "es": "Bielorrusia",
      "fr": "Biélorussie",
      "ja": "ベラルーシ",
      "it": "Bielorussia",
      "br": "Bielorrússia",
      "pt": "Bielorrússia",
      "nl": "Wit-Rusland",
      "hr": "Bjelorusija",
      "fa": "بلاروس",
      "tr": "Belarus"
    }
  },
  {
    "name": "Belgium",
    "native_name": "België",
    "alpha2_code": "BE",
    "numeric_code": 56,
    "capital": "Brussels",
    "region": "Europe",
    "lat_long": [
      50.83333333,
      4
    ],
    "languages": [
      {
        "iso_code": "nl",
        "name": "Dutch",
        "native_name": "Nederlands"
      },
      {
        "iso_code": "fr",
        "name": "French",
        "native_name": "français"
      },
      {
        "iso_code": "de",
        "name": "German",
        "native_name": "Deutsch"
      }
    ],
    "translations": {
      "de": "Belgien",
      "es": "Bélgica",
      "fr": "Belgique",
      "ja": "ベルギー",
      "it": "Belgio",
      "br": "Bélgica",
      "pt": "Bélgica",
      "nl": "België",
      "hr": "Belgija",
      "fa": "بلژیک",
      "tr": "Belçika"
    }
  },
  {
    "name": "Belize",
    "native_name": "Belize",
    "alpha2_code": "BZ",
    "numeric_code": 84,
    "capital": "Belmopan",
    "region": "Americas",
    "lat_long": [
      17.25,
      -88.75
    ],
    "languages": [
      {
        "iso_code": "en",
        "name": "English",
        "native_name": "English"
      },
      {
        "iso_code": "es",
        "name": "Spanish",
        "native_name": "Español"
      }
    ],
    "translations": {
      "de": "Belize",
      "es": "Belice",
      "fr": "Belize",
      "ja": "ベリーズ",
      "it": "Belize",
      "br": "Belize",
      "pt": "Belize",
      "nl": "Belize",
      "hr": "Belize",
      "fa": "بلیز",
      "tr": "Belize"
    }
  },
  {
    "name": "Benin",
    "native_name": "Bénin",
    "alpha2_code": "BJ",
    "numeric_code": 204,
    "capital": "Porto-Novo",
    "region": "Africa",
    "lat_long": [
      9.5,
      2.25
    ],
    "languages": [
      {
        "iso_code": "fr",
        "name": "French",
        "native_name": "français"
      }
    ],
    "translations": {
      "de": "Benin",
      "es": "Benín",
      "fr": "Bénin",
      "ja": "ベナン",
      "it": "Benin",
      "br": "Benin",
      "pt": "Benim",
      "nl": "Benin",
      "hr": "Benin",
      "fa": "بنین",
      "tr": "Benin"
    }
  },
  {
    "name": "Bermuda",
    "native_name": "Bermuda",
    "alpha2_code": "BM",
    "numeric_code": 60,
    "capital": "Hamilton",
    "region": "Americas",
    "lat_long": [
      32.33333333,
      -64.75
    ],
    "languages": [
      {
        "iso_code": "en",
        "name": "English",
        "native_name": "English"
      }
    ],
    "translations": {
      "de": "Bermuda",
      "es": "Bermudas",
      "fr": "Bermudes",
      "ja": "バミューダ",
      "it": "Bermuda",
      "br": "Bermudas",
      "pt": "Bermudas",
      "nl": "Bermuda",
      "hr": "Bermudi",
      "fa": "برمودا",
      "tr": "Bermuda"
    }
  },
  {
    "name": "Bhutan",
    "native_name": "ʼbrug-yul",
    "alpha2_code": "BT",
    "numeric_code": 64,
    "capital": "Thimphu",
    "region": "Asia",
    "lat_long": [
      27.5,
      90.5
    ],
    "languages": [
      {
        "iso_code": "dz",
        "name": "Dzongkha",
        "native_name": "རྫོང་ཁ"
      }
    ],
    "translations": {
      "de": "Bhutan",
      "es": "Bután",
      "fr": "Bhoutan",
      "ja": "ブータン",
      "it": "Bhutan",
      "br": "Butão",
      "pt": "Butão",
      "nl": "Bhutan",
      "hr": "Butan",
      "fa": "بوتان",
      "tr": "Bhutan"
    }
  },
  {
    "name": "Bolivia",
    "native_name": "Bolivia",
    "alpha2_code": "BO",
    "numeric_code": 68,
    "capital": "Sucre",
    "region": "Americas",
    "lat_long": [
      -17,
      -65
    ],
    "languages": [
      {
        "iso_code": "es",
        "name": "Spanish",
        "native_name": "Español"
      },
      {
        "iso_code": "ay",
        "name": "Aymara",
        "native_name": "aymar aru"
      },
      {
        "iso_code": "qu",
        "name": "Quechua",
        "native_name": "Runa Simi"
      }
    ],
    "translations": {
      "de": "Bolivien",
      "es": "Bolivia",
      "fr": "Bolivie",
      "ja": "ボリビア多民族国",
      "it": "Bolivia",
      "br": "Bolívia",
      "pt": "Bolívia",
      "nl": "Bolivia",
      "hr": "Bolivija",
      "fa": "بولیوی",
      "tr": "Bolivya"
    }
  },
  {
    "name": "Bonaire, Sint Eustatius and Saba",
    "native_name": "Bonaire",
    "alpha2_code": "BQ",
    "numeric_code": 535,
    "capital": "Kralendijk",
    "region": "Americas",
    "lat_long": [
      12.15,
      -68.266667
    ],
    "languages": [
      {
        "iso_code": "nl",
        "name": "Dutch",
        "native_name": "Nederlands"
      }
    ],
    "translations": {
      "de": "Bonaire, Sint Eustatius und Saba",
      "fr": "Bonaire, Saint-Eustache et Saba",
      "it": "Bonaire, Saint-Eustache e Saba",
      "br": "Bonaire",
      "pt": "Bonaire",
      "fa": "بونیر",
      "tr": "Bonaire, Sint Eustatius ve Saba"
    }
  },
  {
    "name": "Bosnia and Herzegovina",
    "native_name": "Bosna i Hercegovina",
    "alpha2_code": "BA",
    "numeric_code": 70,
    "capital": "Sarajevo",
    "region": "Europe",
    "lat_long": [
      44,
      18
    ],
    "languages": [
      {
        "iso_code": "bs",
        "name": "Bosnian",
        "native_name": "bosanski jezik"
      },
      {
        "iso_code": "hr",
        "name": "Croatian",
        "native_name": "hrvatski jezik"
      },
      {
        "iso_code": "sr",
        "name": "Serbian",
        "native_name": "српски језик"
      }
    ],
    "translations": {
      "de": "Bosnien und Herzegowina",
      "es": "Bosnia y Herzegovina",
      "fr": "Bosnie-Herzégovine",
      "ja": "ボスニア・ヘルツェゴビナ",
      "it": "Bosnia ed Erzegovina",
      "br": "Bósnia e Herzegovina",
      "pt": "Bósnia e Herzegovina",
      "nl": "Bosnië en Herzegovina",
      "hr": "Bosna i Hercegovina",
      "fa": "بوسنی و هرزگوین",
      "tr": "Bosna-Hersek"
    }
  },
  {
    "name": "Botswana",
    "native_name": "Botswana",
    "alpha2_code": "BW",
    "numeric_code": 72,
    "capital": "Gaborone",
    "region": "Africa",
    "lat_long": [
      -22,
      24
    ],
    "languages": [
      {
        "iso_code": "en",
        "name": "English",
        "native_name": "English"
      },
      {
        "iso_code": "tn",
        "name": "Tswana",
        "native_name": "Setswana"
      }
    ],
    "translations": {
      "de": "Botswana",
      "es": "Botswana",
      "fr": "Botswana",
      "ja": "ボツワナ",
      "it": "Botswana",
      "br": "Botsuana",
      "pt": "Botsuana",
      "nl": "Botswana",
      "hr": "Bocvana",
      "fa": "بوتسوانا",
      "tr": "Botswana"
    }
  },
  {
    "name": "Bouvet Island",
    "native_name": "Bouvetøya",
    "alpha2_code": "BV",
    "numeric_code": 74,
    "capital": null,
    "region": null,
    "lat_long": [
      -54.43333333,
      3.4
    ],
    "languages": [
      {
        "iso_code": "no",
        "name": "Norwegian",
        "native_name": "Norsk"
      },
      {
        "iso_code": "nb",
        "name": "Norwegian Bokmål",
        "native_name": "Norsk bokmål"
      },
      {
        "iso_code": "nn",
        "name": "Norwegian Nynorsk",
        "native_name": "Norsk nynorsk"
      }
    ],
    "translations": {
      "de": "Bouvetinsel",
      "es": "Isla Bouvet",
      "fr": "Île Bouvet",
      "ja": "ブーベ島",
      "it": "Isola Bouvet",
      "br": "Ilha Bouvet",
      "pt": "Ilha Bouvet",
      "nl": "Bouveteiland",
      "hr": "Otok Bouvet",
      "fa": "جزیره بووه",
      "tr": "Bouvet Adası"
    }
  },
  {
    "name": "Brazil",
    "native_name": "Brasil",
    "alpha2_code": "BR",
    "numeric_code": 76,
    "capital": "Brasília",
    "region": "Americas",
    "lat_long": [
      -10,
      -55
    ],
    "languages": [
      {
        "iso_code": "pt",
        "name": "Portuguese",
        "native_name": "Português"
      }
    ],
    "translations": {
      "de": "Brasilien",
      "es": "Brasil",
      "fr": "Brésil",
      "ja": "ブラジル",
      "it": "Brasile",
      "br": "Brasil",
      "pt": "Brasil",
      "nl": "Brazilië",
      "hr": "Brazil",
      "fa": "برزیل",
      "tr": "Brezilya"
    }
  },
  {
    "name": "British Indian Ocean Territory",
    "native_name": "British Indian Ocean Territory",
    "alpha2_code": "IO",
    "numeric_code": 86,
    "capital": "Diego Garcia",
    "region": "Africa",
    "lat_long": [
      -6,
      71.5
    ],
    "languages": [
      {
        "iso_code": "en",
        "name": "English",
        "native_name": "English"
      }
    ],
    "translations": {
      "de": "Britisches Territorium im Indischen Ozean",
      "es": "Territorio Británico del Océano Índico",
      "fr": "Territoire britannique de l'océan Indien",
      "ja": "イギリス領インド洋地域",
      "it": "Territorio britannico dell'oceano indiano",
      "br": "Território Britânico do Oceano íÍdico",
      "pt": "Território Britânico do Oceano Índico",
      "nl": "Britse Gebieden in de Indische Oceaan",
      "hr": "Britanski Indijskooceanski teritorij",
      "fa": "قلمرو بریتانیا در اقیانوس هند",
      "tr": "İngiliz Hint Okyanusu Bölgesi"
    }
  },
  {
    "name": "United States Minor Outlying Islands",
    "native_name": "United States Minor Outlying Islands",
    "alpha2_code": "UM",
    "numeric_code": 581,
    "capital": null,
    "region": "Americas",
    "lat_long": [],
    "languages": [
      {
        "iso_code": "en",
        "name": "English",
        "native_name": "English"
      }
    ],
    "translations": {
      "de": "Kleinere Inselbesitzungen der Vereinigten Staaten",
      "es": "Islas Ultramarinas Menores de Estados Unidos",
      "fr": "Îles mineures éloignées des États-Unis",
      "ja": "合衆国領有小離島",
      "it": "Isole minori esterne degli Stati Uniti d'America",
      "br": "Ilhas Menores Distantes dos Estados Unidos",
      "pt": "Ilhas Menores Distantes dos Estados Unidos",
      "nl": "Kleine afgelegen eilanden van de Verenigde Staten",
      "hr": "Mali udaljeni otoci SAD-a",
      "fa": "جزایر کوچک حاشیه‌ای ایالات متحده آمریکا",
      "tr": "Amerika Birleşik Devletleri Küçük Dış Adaları "
    }
  },
  {
    "name": "British Virgin Islands",
    "native_name": "British Virgin Islands",
    "alpha2_code": "VG",
    "numeric_code": 92,
    "capital": "Road Town",
    "region": "Americas",
    "lat_long": [
      18.431383,
      -64.62305
    ],
    "languages": [
      {
        "iso_code": "en",
        "name": "English",
        "native_name": "English"
      }
    ],
    "translations": {
      "de": "Britische Jungferninseln",
      "es": "Islas Vírgenes del Reino Unido",
      "fr": "Îles Vierges britanniques",
      "ja": "イギリス領ヴァージン諸島",
      "it": "Isole Vergini Britanniche",
      "br": "Ilhas Virgens Britânicas",
      "pt": "Ilhas Virgens Britânicas",
      "nl": "Britse Maagdeneilanden",
      "hr": "Britanski Djevičanski Otoci",
      "fa": "جزایر ویرجین بریتانیا",
      "tr": "Britanya Virjin Adaları"
    }
  },
  {
    "name": "U.S. Virgin Islands",
    "native_name": "Virgin Islands of the United States",
    "alpha2_code": "VI",
    "numeric_code": 850,
    "capital": "Charlotte Amalie",
    "region": "Americas",
    "lat_long": [
      18.34,
      -64.93
    ],
    "languages": [
      {
        "iso_code": "en",
        "name": "English",
        "native_name": "English"
      }
    ],
    "translations": {
      "de": "Amerikanische Jungferninseln",
      "es": "Islas Vírgenes de los Estados Unidos",
      "fr": "Îles Vierges des États-Unis",
      "ja": "アメリカ領ヴァージン諸島",
      "it": "Isole Vergini americane",
      "br": "Ilhas Virgens Americanas",
      "pt": "Ilhas Virgens Americanas",
      "nl": "Verenigde Staten Maagdeneilanden",
      "fa": "جزایر ویرجین آمریکا",
      "tr": "ABD Virjin Adaları"
    }
  },
  {
    "name": "Brunei Darussalam",
    "native_name": "Negara Brunei Darussalam",
    "alpha2_code": "BN",
    "numeric_code": 96,
    "capital": "Bandar Seri Begawan",
    "region": "Asia",
    "lat_long": [
      4.5,
      114.66666666
    ],
    "languages": [
      {
        "iso_code": "ms",
        "name": "Malay",
        "native_name": "bahasa Melayu"
      }
    ],
    "translations": {
      "de": "Brunei",
      "es": "Brunei",
      "fr": "Brunei",
      "ja": "ブルネイ・ダルサラーム",
      "it": "Brunei",
      "br": "Brunei",
      "pt": "Brunei",
      "nl": "Brunei",
      "hr": "Brunej",
      "fa": "برونئی",
      "tr": "Brunei Sultanlığı"
    }
  },
  {
    "name": "Bulgaria",
    "native_name": "България",
    "alpha2_code": "BG",
    "numeric_code": 100,
    "capital": "Sofia",
    "region": "Europe",
    "lat_long": [
      43,
      25
    ],
    "languages": [
      {
        "iso_code": "bg",
        "name": "Bulgarian",
        "native_name": "български език"
      }
    ],
    "translations": {
      "de": "Bulgarien",
      "es": "Bulgaria",
      "fr": "Bulgarie",
      "ja": "ブルガリア",
      "it": "Bulgaria",
      "br": "Bulgária",
      "pt": "Bulgária",
      "nl": "Bulgarije",
      "hr": "Bugarska",
      "fa": "بلغارستان",
      "tr": "Bulgaristan"
    }
  },
  {
    "name": "Burkina Faso",
    "native_name": "Burkina Faso",
    "alpha2_code": "BF",
    "numeric_code": 854,
    "capital": "Ouagadougou",
    "region": "Africa",
    "lat_long": [
      13,
      -2
    ],
    "languages": [
      {
        "iso_code": "fr",
        "name": "French",
        "native_name": "français"
      },
      {
        "iso_code": "ff",
        "name": "Fula",
        "native_name": "Fulfulde"
      }
    ],
    "translations": {
      "de": "Burkina Faso",
      "es": "Burkina Faso",
      "fr": "Burkina Faso",
      "ja": "ブルキナファソ",
      "it": "Burkina Faso",
      "br": "Burkina Faso",
      "pt": "Burquina Faso",
      "nl": "Burkina Faso",
      "hr": "Burkina Faso",
      "fa": "بورکینافاسو",
      "tr": "Burkina Faso"
    }
  },
  {
    "name": "Burundi",
    "native_name": "Burundi",
    "alpha2_code": "BI",
    "numeric_code": 108,
    "capital": "Bujumbura",
    "region": "Africa",
    "lat_long": [
      -3.5,
      30
    ],
    "languages": [
      {
        "iso_code": "fr",
        "name": "French",
        "native_name": "français"
      },
      {
        "iso_code": "rn",
        "name": "Kirundi",
        "native_name": "Ikirundi"
      }
    ],
    "translations": {
      "de": "Burundi",
      "es": "Burundi",
      "fr": "Burundi",
      "ja": "ブルンジ",
      "it": "Burundi",
      "br": "Burundi",
      "pt": "Burúndi",
      "nl": "Burundi",
      "hr": "Burundi",
      "fa": "بوروندی",
      "tr": "Burundi"
    }
  },
  {
    "name": "Cambodia",
    "native_name": "Kâmpŭchéa",
    "alpha2_code": "KH",
    "numeric_code": 116,
    "capital": "Phnom Penh",
    "region": "Asia",
    "lat_long": [
      13,
      105
    ],
    "languages": [
      {
        "iso_code": "km",
        "name": "Khmer",
        "native_name": "ខ្មែរ"
      }
    ],
    "translations": {
      "de": "Kambodscha",
      "es": "Camboya",
      "fr": "Cambodge",
      "ja": "カンボジア",
      "it": "Cambogia",
      "br": "Camboja",
      "pt": "Camboja",
      "nl": "Cambodja",
      "hr": "Kambodža",
      "fa": "کامبوج",
      "tr": "Kamboçya"
    }
  },
  {
    "name": "Cameroon",
    "native_name": "Cameroon",
    "alpha2_code": "CM",
    "numeric_code": 120,
    "capital": "Yaoundé",
    "region": "Africa",
    "lat_long": [
      6,
      12
    ],
    "languages": [
      {
        "iso_code": "en",
        "name": "English",
        "native_name": "English"
      },
      {
        "iso_code": "fr",
        "name": "French",
        "native_name": "français"
      }
    ],
    "translations": {
      "de": "Kamerun",
      "es": "Camerún",
      "fr": "Cameroun",
      "ja": "カメルーン",
      "it": "Camerun",
      "br": "Camarões",
      "pt": "Camarões",
      "nl": "Kameroen",
      "hr": "Kamerun",
      "fa": "کامرون",
      "tr": "Kamerun"
    }
  },
  {
    "name": "Canada",
    "native_name": "Canada",
    "alpha2_code": "CA",
    "numeric_code": 124,
    "capital": "Ottawa",
    "region": "Americas",
    "lat_long": [
      60,
      -95
    ],
    "languages": [
      {
        "iso_code": "en",
        "name": "English",
        "native_name": "English"
      },
      {
        "iso_code": "fr",
        "name": "French",
        "native_name": "français"
      }
    ],
    "translations": {
      "de": "Kanada",
      "es": "Canadá",
      "fr": "Canada",
      "ja": "カナダ",
      "it": "Canada",
      "br": "Canadá",
      "pt": "Canadá",
      "nl": "Canada",
      "hr": "Kanada",
      "fa": "کانادا",
      "tr": "Kanada"
    }
  },
  {
    "name": "Cabo Verde",
    "native_name": "Cabo Verde",
    "alpha2_code": "CV",
    "numeric_code": 132,
    "capital": "Praia",
    "region": "Africa",
    "lat_long": [
      16,
      -24
    ],
    "languages": [
      {
        "iso_code": "pt",
        "name": "Portuguese",
        "native_name": "Português"
      }
    ],
    "translations": {
      "de": "Kap Verde",
      "es": "Cabo Verde",
      "fr": "Cap Vert",
      "ja": "カーボベルデ",
      "it": "Capo Verde",
      "br": "Cabo Verde",
      "pt": "Cabo Verde",
      "nl": "Kaapverdië",
      "hr": "Zelenortska Republika",
      "fa": "کیپ ورد",
      "tr": "Cabo Verde"
    }
  },
  {
    "name": "Cayman Islands",
    "native_name": "Cayman Islands",
    "alpha2_code": "KY",
    "numeric_code": 136,
    "capital": "George Town",
    "region": "Americas",
    "lat_long": [
      19.5,
      -80.5
    ],
    "languages": [
      {
        "iso_code": "en",
        "name": "English",
        "native_name": "English"
      }
    ],
    "translations": {
      "de": "Kaimaninseln",
      "es": "Islas Caimán",
      "fr": "Îles Caïmans",
      "ja": "ケイマン諸島",
      "it": "Isole Cayman",
      "br": "Ilhas Cayman",
      "pt": "Ilhas Caimão",
      "nl": "Caymaneilanden",
      "hr": "Kajmanski otoci",
      "fa": "جزایر کیمن",
      "tr": "Cayman Adaları"
    }
  },
  {
    "name": "Central African Republic",
    "native_name": "Ködörösêse tî Bêafrîka",
    "alpha2_code": "CF",
    "numeric_code": 140,
    "capital": "Bangui",
    "region": "Africa",
    "lat_long": [
      7,
      21
    ],
    "languages": [
      {
        "iso_code": "fr",
        "name": "French",
        "native_name": "français"
      },
      {
        "iso_code": "sg",
        "name": "Sango",
        "native_name": "yângâ tî sängö"
      }
    ],
    "translations": {
      "de": "Zentralafrikanische Republik",
      "es": "República Centroafricana",
      "fr": "République centrafricaine",
      "ja": "中央アフリカ共和国",
      "it": "Repubblica Centrafricana",
      "br": "República Centro-Africana",
      "pt": "República Centro-Africana",
      "nl": "Centraal-Afrikaanse Republiek",
      "hr": "Srednjoafrička Republika",
      "fa": "جمهوری آفریقای مرکزی",
      "tr": "Orta Afrika Cumhuriyeti"
    }
  },
  {
    "name": "Chad",
    "native_name": "Tchad",
    "alpha2_code": "TD",
    "numeric_code": 148,
    "capital": "N'Djamena",
    "region": "Africa",
    "lat_long": [
      15,
      19
    ],
    "languages": [
      {
        "iso_code": "fr",
        "name": "French",
        "native_name": "français"
      },
      {
        "iso_code": "ar",
        "name": "Arabic",
        "native_name": "العربية"
      }
    ],
    "translations": {
      "de": "Tschad",
      "es": "Chad",
      "fr": "Tchad",
      "ja": "チャド",
      "it": "Ciad",
      "br": "Chade",
      "pt": "Chade",
      "nl": "Tsjaad",
      "hr": "Čad",
      "fa": "چاد",
      "tr": "Chad"
    }
  },
  {
    "name": "Chile",
    "native_name": "Chile",
    "alpha2_code": "CL",
    "numeric_code": 152,
    "capital": "Santiago",
    "region": "Americas",
    "lat_long": [
      -30,
      -71
    ],
    "languages": [
      {
        "iso_code": "es",
        "name": "Spanish",
        "native_name": "Español"
      }
    ],
    "translations": {
      "de": "Chile",
      "es": "Chile",
      "fr": "Chili",
      "ja": "チリ",
      "it": "Cile",
      "br": "Chile",
      "pt": "Chile",
      "nl": "Chili",
      "hr": "Čile",
      "fa": "شیلی",
      "tr": "Şili"
    }
  },
  {
    "name": "China",
    "native_name": "中国",
    "alpha2_code": "CN",
    "numeric_code": 156,
    "capital": "Beijing",
    "region": "Asia",
    "lat_long": [
      35,
      105
    ],
    "languages": [
      {
        "iso_code": "zh",
        "name": "Chinese",
        "native_name": "中文 (Zhōngwén)"
      }
    ],
    "translations": {
      "de": "China",
      "es": "China",
      "fr": "Chine",
      "ja": "中国",
      "it": "Cina",
      "br": "China",
      "pt": "China",
      "nl": "China",
      "hr": "Kina",
      "fa": "چین",
      "tr": "Çin"
    }
  },
  {
    "name": "Christmas Island",
    "native_name": "Christmas Island",
    "alpha2_code": "CX",
    "numeric_code": 162,
    "capital": "Flying Fish Cove",
    "region": "Oceania",
    "lat_long": [
      -10.5,
      105.66666666
    ],
    "languages": [
      {
        "iso_code": "en",
        "name": "English",
        "native_name": "English"
      }
    ],
    "translations": {
      "de": "Weihnachtsinsel",
      "es": "Isla de Navidad",
      "fr": "Île Christmas",
      "ja": "クリスマス島",
      "it": "Isola di Natale",
      "br": "Ilha Christmas",
      "pt": "Ilha do Natal",
      "nl": "Christmaseiland",
      "hr": "Božićni otok",
      "fa": "جزیره کریسمس",
      "tr": "Christmas Adası"
    }
  },
  {
    "name": "Cocos (Keeling) Islands",
    "native_name": "Cocos (Keeling) Islands",
    "alpha2_code": "CC",
    "numeric_code": 166,
    "capital": "West Island",
    "region": "Oceania",
    "lat_long": [
      -12.5,
      96.83333333
    ],
    "languages": [
      {
        "iso_code": "en",
        "name": "English",
        "native_name": "English"
      }
    ],
    "translations": {
      "de": "Kokosinseln",
      "es": "Islas Cocos o Islas Keeling",
      "fr": "Îles Cocos",
      "ja": "ココス（キーリング）諸島",
      "it": "Isole Cocos e Keeling",
      "br": "Ilhas Cocos",
      "pt": "Ilhas dos Cocos",
      "nl": "Cocoseilanden",
      "hr": "Kokosovi Otoci",
      "fa": "جزایر کوکوس",
      "tr": "Cocos (Keeling) Adaları"
    }
  },
  {
    "name": "Colombia",
    "native_name": "Colombia",
    "alpha2_code": "CO",
    "numeric_code": 170,
    "capital": "Bogotá",
    "region": "Americas",
    "lat_long": [
      4,
      -72
    ],
    "languages": [
      {
        "iso_code": "es",
        "name": "Spanish",
        "native_name": "Español"
      }
    ],
    "translations": {
      "de": "Kolumbien",
      "es": "Colombia",
      "fr": "Colombie",
      "ja": "コロンビア",
      "it": "Colombia",
      "br": "Colômbia",
      "pt": "Colômbia",
      "nl": "Colombia",
      "hr": "Kolumbija",
      "fa": "کلمبیا",
      "tr": "Kolombiya"
    }
  },
  {
    "name": "Comoros",
    "native_name": "Komori",
    "alpha2_code": "KM",
    "numeric_code": 174,
    "capital": "Moroni",
    "region": "Africa",
    "lat_long": [
      -12.16666666,
      44.25
    ],
    "languages": [
      {
        "iso_code": "ar",
        "name": "Arabic",
        "native_name": "العربية"
      },
      {
        "iso_code": "fr",
        "name": "French",
        "native_name": "français"
      }
    ],
    "translations": {
      "de": "Union der Komoren",
      "es": "Comoras",
      "fr": "Comores",
      "ja": "コモロ",
      "it": "Comore",
      "br": "Comores",
      "pt": "Comores",
      "nl": "Comoren",
      "hr": "Komori",
      "fa": "کومور",
      "tr": "Comoros"
    }
  },
  {
    "name": "Congo",
    "native_name": "République du Congo",
    "alpha2_code": "CG",
    "numeric_code": 178,
    "capital": "Brazzaville",
    "region": "Africa",
    "lat_long": [
      -1,
      15
    ],
    "languages": [
      {
        "iso_code": "fr",
        "name": "French",
        "native_name": "français"
      },
      {
        "iso_code": "ln",
        "name": "Lingala",
        "native_name": "Lingála"
      }
    ],
    "translations": {
      "de": "Kongo",
      "es": "Congo",
      "fr": "Congo",
      "ja": "コンゴ共和国",
      "it": "Congo",
      "br": "Congo",
      "pt": "Congo",
      "nl": "Congo [Republiek]",
      "hr": "Kongo",
      "fa": "کنگو",
      "tr": "Kongo"
    }
  },
  {
    "name": "Congo (Democratic Republic of the)",
    "native_name": "République démocratique du Congo",
    "alpha2_code": "CD",
    "numeric_code": 180,
    "capital": "Kinshasa",
    "region": "Africa",
    "lat_long": [
      0,
      25
    ],
    "languages": [
      {
        "iso_code": "fr",
        "name": "French",
        "native_name": "français"
      },
      {
        "iso_code": "ln",
        "name": "Lingala",
        "native_name": "Lingála"
      },
      {
        "iso_code": "kg",
        "name": "Kongo",
        "native_name": "Kikongo"
      },
      {
        "iso_code": "sw",
        "name": "Swahili",
        "native_name": "Kiswahili"
      },
      {
        "iso_code": "lu",
        "name": "Luba-Katanga",
        "native_name": "Tshiluba"
      }
    ],
    "translations": {
      "de": "Kongo (Dem. Rep.)",
      "es": "Congo (Rep. Dem.)",
      "fr": "Congo (Rép. dém.)",
      "ja": "コンゴ民主共和国",
      "it": "Congo (Rep. Dem.)",
      "br": "RD Congo",
      "pt": "RD Congo",
      "nl": "Congo [DRC]",
      "hr": "Kongo, Demokratska Republika",
      "fa": "جمهوری کنگو",
      "tr": "Kongo (Demokratik Cumhuriyet)"
    }
  },
  {
    "name": "Cook Islands",
    "native_name": "Cook Islands",
    "alpha2_code": "CK",
    "numeric_code": 184,
    "capital": "Avarua",
    "region": "Oceania",
    "lat_long": [
      -21.23333333,
      -159.76666666
    ],
    "languages": [
      {
        "iso_code": "en",
        "name": "English",
        "native_name": "English"
      }
    ],
    "translations": {
      "de": "Cookinseln",
      "es": "Islas Cook",
      "fr": "Îles Cook",
      "ja": "クック諸島",
      "it": "Isole Cook",
      "br": "Ilhas Cook",
      "pt": "Ilhas Cook",
      "nl": "Cookeilanden",
      "hr": "Cookovo Otočje",
      "fa": "جزایر کوک",
      "tr": "Cook Adaları"
    }
  },
  {
    "name": "Costa Rica",
    "native_name": "Costa Rica",
    "alpha2_code": "CR",
    "numeric_code": 188,
    "capital": "San José",
    "region": "Americas",
    "lat_long": [
      10,
      -84
    ],
    "languages": [
      {
        "iso_code": "es",
        "name": "Spanish",
        "native_name": "Español"
      }
    ],
    "translations": {
      "de": "Costa Rica",
      "es": "Costa Rica",
      "fr": "Costa Rica",
      "ja": "コスタリカ",
      "it": "Costa Rica",
      "br": "Costa Rica",
      "pt": "Costa Rica",
      "nl": "Costa Rica",
      "hr": "Kostarika",
      "fa": "کاستاریکا",
      "tr": "Kosta Rika"
    }
  },
  {
    "name": "Croatia",
    "native_name": "Hrvatska",
    "alpha2_code": "HR",
    "numeric_code": 191,
    "capital": "Zagreb",
    "region": "Europe",
    "lat_long": [
      45.16666666,
      15.5
    ],
    "languages": [
      {
        "iso_code": "hr",
        "name": "Croatian",
        "native_name": "hrvatski jezik"
      }
    ],
    "translations": {
      "de": "Kroatien",
      "es": "Croacia",
      "fr": "Croatie",
      "ja": "クロアチア",
      "it": "Croazia",
      "br": "Croácia",
      "pt": "Croácia",
      "nl": "Kroatië",
      "hr": "Hrvatska",
      "fa": "کرواسی",
      "tr": "Hırvatistan"
    }
  },
  {
    "name": "Cuba",
    "native_name": "Cuba",
    "alpha2_code": "CU",
    "numeric_code": 192,
    "capital": "Havana",
    "region": "Americas",
    "lat_long": [
      21.5,
      -80
    ],
    "languages": [
      {
        "iso_code": "es",
        "name": "Spanish",
        "native_name": "Español"
      }
    ],
    "translations": {
      "de": "Kuba",
      "es": "Cuba",
      "fr": "Cuba",
      "ja": "キューバ",
      "it": "Cuba",
      "br": "Cuba",
      "pt": "Cuba",
      "nl": "Cuba",
      "hr": "Kuba",
      "fa": "کوبا",
      "tr": "Küba"
    }
  },
  {
    "name": "Curaçao",
    "native_name": "Curaçao",
    "alpha2_code": "CW",
    "numeric_code": 531,
    "capital": "Willemstad",
    "region": "Americas",
    "lat_long": [
      12.116667,
      -68.933333
    ],
    "languages": [
      {
        "iso_code": "nl",
        "name": "Dutch",
        "native_name": "Nederlands"
      },
      {
        "iso_code": "pa",
        "name": "(Eastern) Punjabi",
        "native_name": "ਪੰਜਾਬੀ"
      },
      {
        "iso_code": "en",
        "name": "English",
        "native_name": "English"
      }
    ],
    "translations": {
      "de": "Curaçao",
      "fr": "Curaçao",
      "it": "Curaçao",
      "br": "Curaçao",
      "pt": "Curaçao",
      "nl": "Curaçao",
      "fa": "کوراسائو",
      "tr": "Curaçao"
    }
  },
  {
    "name": "Cyprus",
    "native_name": "Κύπρος",
    "alpha2_code": "CY",
    "numeric_code": 196,
    "capital": "Nicosia",
    "region": "Europe",
    "lat_long": [
      35,
      33
    ],
    "languages": [
      {
        "iso_code": "el",
        "name": "Greek (modern)",
        "native_name": "ελληνικά"
      },
      {
        "iso_code": "tr",
        "name": "Turkish",
        "native_name": "Türkçe"
      },
      {
        "iso_code": "hy",
        "name": "Armenian",
        "native_name": "Հայերեն"
      }
    ],
    "translations": {
      "de": "Zypern",
      "es": "Chipre",
      "fr": "Chypre",
      "ja": "キプロス",
      "it": "Cipro",
      "br": "Chipre",
      "pt": "Chipre",
      "nl": "Cyprus",
      "hr": "Cipar",
      "fa": "قبرس",
      "tr": "Kıbrıs"
    }
  },
  {
    "name": "Czech Republic",
    "native_name": "Česká republika",
    "alpha2_code": "CZ",
    "numeric_code": 203,
    "capital": "Prague",
    "region": "Europe",
    "lat_long": [
      49.75,
      15.5
    ],
    "languages": [
      {
        "iso_code": "cs",
        "name": "Czech",
        "native_name": "čeština"
      },
      {
        "iso_code": "sk",
        "name": "Slovak",
        "native_name": "slovenčina"
      }
    ],
    "translations": {
      "de": "Tschechische Republik",
      "es": "República Checa",
      "fr": "République tchèque",
      "ja": "チェコ",
      "it": "Repubblica Ceca",
      "br": "República Tcheca",
      "pt": "República Checa",
      "nl": "Tsjechië",
      "hr": "Češka",
      "fa": "جمهوری چک",
      "tr": "Çek Cumhuriyeti"
    }
  },
  {
    "name": "Denmark",
    "native_name": "Danmark",
    "alpha2_code": "DK",
    "numeric_code": 208,
    "capital": "Copenhagen",
    "region": "Europe",
    "lat_long": [
      56,
      10
    ],
    "languages": [
      {
        "iso_code": "da",
        "name": "Danish",
        "native_name": "dansk"
      }
    ],
    "translations": {
      "de": "Dänemark",
      "es": "Dinamarca",
      "fr": "Danemark",
      "ja": "デンマーク",
      "it": "Danimarca",
      "br": "Dinamarca",
      "pt": "Dinamarca",
      "nl": "Denemarken",
      "hr": "Danska",
      "fa": "دانمارک",
      "tr": "Danimarka"
    }
  },
  {
    "name": "Djibouti",
    "native_name": "Djibouti",
    "alpha2_code": "DJ",
    "numeric_code": 262,
    "capital": "Djibouti",
    "region": "Africa",
    "lat_long": [
      11.5,
      43
    ],
    "languages": [
      {
        "iso_code": "fr",
        "name": "French",
        "native_name": "français"
      },
      {
        "iso_code": "ar",
        "name": "Arabic",
        "native_name": "العربية"
      }
    ],
    "translations": {
      "de": "Dschibuti",
      "es": "Yibuti",
      "fr": "Djibouti",
      "ja": "ジブチ",
      "it": "Gibuti",
      "br": "Djibuti",
      "pt": "Djibuti",
      "nl": "Djibouti",
      "hr": "Džibuti",
      "fa": "جیبوتی",
      "tr": "Cibuti"
    }
  },
  {
    "name": "Dominica",
    "native_name": "Dominica",
    "alpha2_code": "DM",
    "numeric_code": 212,
    "capital": "Roseau",
    "region": "Americas",
    "lat_long": [
      15.41666666,
      -61.33333333
    ],
    "languages": [
      {
        "iso_code": "en",
        "name": "English",
        "native_name": "English"
      }
    ],
    "translations": {
      "de": "Dominica",
      "es": "Dominica",
      "fr": "Dominique",
      "ja": "ドミニカ国",
      "it": "Dominica",
      "br": "Dominica",
      "pt": "Dominica",
      "nl": "Dominica",
      "hr": "Dominika",
      "fa": "دومینیکا",
      "tr": "Dominika"
    }
  },
  {
    "name": "Dominican Republic",
    "native_name": "República Dominicana",
    "alpha2_code": "DO",
    "numeric_code": 214,
    "capital": "Santo Domingo",
    "region": "Americas",
    "lat_long": [
      19,
      -70.66666666
    ],
    "languages": [
      {
        "iso_code": "es",
        "name": "Spanish",
        "native_name": "Español"
      }
    ],
    "translations": {
      "de": "Dominikanische Republik",
      "es": "República Dominicana",
      "fr": "République dominicaine",
      "ja": "ドミニカ共和国",
      "it": "Repubblica Dominicana",
      "br": "República Dominicana",
      "pt": "República Dominicana",
      "nl": "Dominicaanse Republiek",
      "hr": "Dominikanska Republika",
      "fa": "جمهوری دومینیکن",
      "tr": "Dominik Cumhuriyeti"
    }
  },
  {
    "name": "Ecuador",
    "native_name": "Ecuador",
    "alpha2_code": "EC",
    "numeric_code": 218,
    "capital": "Quito",
    "region": "Americas",
    "lat_long": [
      -2,
      -77.5
    ],
    "languages": [
      {
        "iso_code": "es",
        "name": "Spanish",
        "native_name": "Español"
      }
    ],
    "translations": {
      "de": "Ecuador",
      "es": "Ecuador",
      "fr": "Équateur",
      "ja": "エクアドル",
      "it": "Ecuador",
      "br": "Equador",
      "pt": "Equador",
      "nl": "Ecuador",
      "hr": "Ekvador",
      "fa": "اکوادور",
      "tr": "Ekvador"
    }
  },
  {
    "name": "Egypt",
    "native_name": "مصر‎",
    "alpha2_code": "EG",
    "numeric_code": 818,
    "capital": "Cairo",
    "region": "Africa",
    "lat_long": [
      27,
      30
    ],
    "languages": [
      {
        "iso_code": "ar",
        "name": "Arabic",
        "native_name": "العربية"
      }
    ],
    "translations": {
      "de": "Ägypten",
      "es": "Egipto",
      "fr": "Égypte",
      "ja": "エジプト",
      "it": "Egitto",
      "br": "Egito",
      "pt": "Egipto",
      "nl": "Egypte",
      "hr": "Egipat",
      "fa": "مصر",
      "tr": "Mısır"
    }
  },
  {
    "name": "El Salvador",
    "native_name": "El Salvador",
    "alpha2_code": "SV",
    "numeric_code": 222,
    "capital": "San Salvador",
    "region": "Americas",
    "lat_long": [
      13.83333333,
      -88.91666666
    ],
    "languages": [
      {
        "iso_code": "es",
        "name": "Spanish",
        "native_name": "Español"
      }
    ],
    "translations": {
      "de": "El Salvador",
      "es": "El Salvador",
      "fr": "Salvador",
      "ja": "エルサルバドル",
      "it": "El Salvador",
      "br": "El Salvador",
      "pt": "El Salvador",
      "nl": "El Salvador",
      "hr": "Salvador",
      "fa": "السالوادور",
      "tr": "El Salvador"
    }
  },
  {
    "name": "Equatorial Guinea",
    "native_name": "Guinea Ecuatorial",
    "alpha2_code": "GQ",
    "numeric_code": 226,
    "capital": "Malabo",
    "region": "Africa",
    "lat_long": [
      2,
      10
    ],
    "languages": [
      {
        "iso_code": "es",
        "name": "Spanish",
        "native_name": "Español"
      },
      {
        "iso_code": "fr",
        "name": "French",
        "native_name": "français"
      }
    ],
    "translations": {
      "de": "Äquatorial-Guinea",
      "es": "Guinea Ecuatorial",
      "fr": "Guinée-Équatoriale",
      "ja": "赤道ギニア",
      "it": "Guinea Equatoriale",
      "br": "Guiné Equatorial",
      "pt": "Guiné Equatorial",
      "nl": "Equatoriaal-Guinea",
      "hr": "Ekvatorijalna Gvineja",
      "fa": "گینه استوایی",
      "tr": "Ekvator Ginesi"
    }
  },
  {
    "name": "Eritrea",
    "native_name": "ኤርትራ",
    "alpha2_code": "ER",
    "numeric_code": 232,
    "capital": "Asmara",
    "region": "Africa",
    "lat_long": [
      15,
      39
    ],
    "languages": [
      {
        "iso_code": "ti",
        "name": "Tigrinya",
        "native_name": "ትግርኛ"
      },
      {
        "iso_code": "ar",
        "name": "Arabic",
        "native_name": "العربية"
      },
      {
        "iso_code": "en",
        "name": "English",
        "native_name": "English"
      }
    ],
    "translations": {
      "de": "Eritrea",
      "es": "Eritrea",
      "fr": "Érythrée",
      "ja": "エリトリア",
      "it": "Eritrea",
      "br": "Eritreia",
      "pt": "Eritreia",
      "nl": "Eritrea",
      "hr": "Eritreja",
      "fa": "اریتره",
      "tr": "Eritre"
    }
  },
  {
    "name": "Estonia",
    "native_name": "Eesti",
    "alpha2_code": "EE",
    "numeric_code": 233,
    "capital": "Tallinn",
    "region": "Europe",
    "lat_long": [
      59,
      26
    ],
    "languages": [
      {
        "iso_code": "et",
        "name": "Estonian",
        "native_name": "eesti"
      }
    ],
    "translations": {
      "de": "Estland",
      "es": "Estonia",
      "fr": "Estonie",
      "ja": "エストニア",
      "it": "Estonia",
      "br": "Estônia",
      "pt": "Estónia",
      "nl": "Estland",
      "hr": "Estonija",
      "fa": "استونی",
      "tr": "Estonya"
    }
  },
  {
    "name": "Ethiopia",
    "native_name": "ኢትዮጵያ",
    "alpha2_code": "ET",
    "numeric_code": 231,
    "capital": "Addis Ababa",
    "region": "Africa",
    "lat_long": [
      8,
      38
    ],
    "languages": [
      {
        "iso_code": "am",
        "name": "Amharic",
        "native_name": "አማርኛ"
      }
    ],
    "translations": {
      "de": "Äthiopien",
      "es": "Etiopía",
      "fr": "Éthiopie",
      "ja": "エチオピア",
      "it": "Etiopia",
      "br": "Etiópia",
      "pt": "Etiópia",
      "nl": "Ethiopië",
      "hr": "Etiopija",
      "fa": "اتیوپی",
      "tr": "Etiyopya"
    }
  },
  {
    "name": "Falkland Islands (Malvinas)",
    "native_name": "Falkland Islands",
    "alpha2_code": "FK",
    "numeric_code": 238,
    "capital": "Stanley",
    "region": "Americas",
    "lat_long": [
      -51.75,
      -59
    ],
    "languages": [
      {
        "iso_code": "en",
        "name": "English",
        "native_name": "English"
      }
    ],
    "translations": {
      "de": "Falklandinseln",
      "es": "Islas Malvinas",
      "fr": "Îles Malouines",
      "ja": "フォークランド（マルビナス）諸島",
      "it": "Isole Falkland o Isole Malvine",
      "br": "Ilhas Malvinas",
      "pt": "Ilhas Falkland",
      "nl": "Falklandeilanden [Islas Malvinas]",
      "hr": "Falklandski Otoci",
      "fa": "جزایر فالکلند",
      "tr": "Falkland Adaları (Malvinas) "
    }
  },
  {
    "name": "Faroe Islands",
    "native_name": "Føroyar",
    "alpha2_code": "FO",
    "numeric_code": 234,
    "capital": "Tórshavn",
    "region": "Europe",
    "lat_long": [
      62,
      -7
    ],
    "languages": [
      {
        "iso_code": "fo",
        "name": "Faroese",
        "native_name": "føroyskt"
      }
    ],
    "translations": {
      "de": "Färöer-Inseln",
      "es": "Islas Faroe",
      "fr": "Îles Féroé",
      "ja": "フェロー諸島",
      "it": "Isole Far Oer",
      "br": "Ilhas Faroé",
      "pt": "Ilhas Faroé",
      "nl": "Faeröer",
      "hr": "Farski Otoci",
      "fa": "جزایر فارو",
      "tr": "Faroe Adaları"
    }
  },
  {
    "name": "Fiji",
    "native_name": "Fiji",
    "alpha2_code": "FJ",
    "numeric_code": 242,
    "capital": "Suva",
    "region": "Oceania",
    "lat_long": [
      -18,
      175
    ],
    "languages": [
      {
        "iso_code": "en",
        "name": "English",
        "native_name": "English"
      },
      {
        "iso_code": "fj",
        "name": "Fijian",
        "native_name": "vosa Vakaviti"
      },
      {
        "iso_code": "hi",
        "name": "Hindi",
        "native_name": "हिन्दी"
      },
      {
        "iso_code": "ur",
        "name": "Urdu",
        "native_name": "اردو"
      }
    ],
    "translations": {
      "de": "Fidschi",
      "es": "Fiyi",
      "fr": "Fidji",
      "ja": "フィジー",
      "it": "Figi",
      "br": "Fiji",
      "pt": "Fiji",
      "nl": "Fiji",
      "hr": "Fiđi",
      "fa": "فیجی",
      "tr": "Fiji"
    }
  },
  {
    "name": "Finland",
    "native_name": "Suomi",
    "alpha2_code": "FI",
    "numeric_code": 246,
    "capital": "Helsinki",
    "region": "Europe",
    "lat_long": [
      64,
      26
    ],
    "languages": [
      {
        "iso_code": "fi",
        "name": "Finnish",
        "native_name": "suomi"
      },
      {
        "iso_code": "sv",
        "name": "Swedish",
        "native_name": "svenska"
      }
    ],
    "translations": {
      "de": "Finnland",
      "es": "Finlandia",
      "fr": "Finlande",
      "ja": "フィンランド",
      "it": "Finlandia",
      "br": "Finlândia",
      "pt": "Finlândia",
      "nl": "Finland",
      "hr": "Finska",
      "fa": "فنلاند",
      "tr": "Finlandiya"
    }
  },
  {
    "name": "France",
    "native_name": "France",
    "alpha2_code": "FR",
    "numeric_code": 250,
    "capital": "Paris",
    "region": "Europe",
    "lat_long": [
      46,
      2
    ],
    "languages": [
      {
        "iso_code": "fr",
        "name": "French",
        "native_name": "français"
      }
    ],
    "translations": {
      "de": "Frankreich",
      "es": "Francia",
      "fr": "France",
      "ja": "フランス",
      "it": "Francia",
      "br": "França",
      "pt": "França",
      "nl": "Frankrijk",
      "hr": "Francuska",
      "fa": "فرانسه",
      "tr": "Fransa"
    }
  },
  {
    "name": "French Guiana",
    "native_name": "Guyane française",
    "alpha2_code": "GF",
    "numeric_code": 254,
    "capital": "Cayenne",
    "region": "Americas",
    "lat_long": [
      4,
      -53
    ],
    "languages": [
      {
        "iso_code": "fr",
        "name": "French",
        "native_name": "français"
      }
    ],
    "translations": {
      "de": "Französisch Guyana",
      "es": "Guayana Francesa",
      "fr": "Guayane",
      "ja": "フランス領ギアナ",
      "it": "Guyana francese",
      "br": "Guiana Francesa",
      "pt": "Guiana Francesa",
      "nl": "Frans-Guyana",
      "hr": "Francuska Gvajana",
      "fa": "گویان فرانسه",
      "tr": "Fransız Guyanası"
    }
  },
  {
    "name": "French Polynesia",
    "native_name": "Polynésie française",
    "alpha2_code": "PF",
    "numeric_code": 258,
    "capital": "Papeetē",
    "region": "Oceania",
    "lat_long": [
      -15,
      -140
    ],
    "languages": [
      {
        "iso_code": "fr",
        "name": "French",
        "native_name": "français"
      }
    ],
    "translations": {
      "de": "Französisch-Polynesien",
      "es": "Polinesia Francesa",
      "fr": "Polynésie française",
      "ja": "フランス領ポリネシア",
      "it": "Polinesia Francese",
      "br": "Polinésia Francesa",
      "pt": "Polinésia Francesa",
      "nl": "Frans-Polynesië",
      "hr": "Francuska Polinezija",
      "fa": "پلی‌نزی فرانسه",
      "tr": "Fransız Polinezyası"
    }
  },
  {
    "name": "French Southern Territories",
    "native_name": "Territoire des Terres australes et antarctiques françaises",
    "alpha2_code": "TF",
    "numeric_code": 260,
    "capital": "Port-aux-Français",
    "region": "Africa",
    "lat_long": [
      -49.25,
      69.167
    ],
    "languages": [
      {
        "iso_code": "fr",
        "name": "French",
        "native_name": "français"
      }
    ],
    "translations": {
      "de": "Französische Süd- und Antarktisgebiete",
      "es": "Tierras Australes y Antárticas Francesas",
      "fr": "Terres australes et antarctiques françaises",
      "ja": "フランス領南方・南極地域",
      "it": "Territori Francesi del Sud",
      "br": "Terras Austrais e Antárticas Francesas",
      "pt": "Terras Austrais e Antárticas Francesas",
      "nl": "Franse Gebieden in de zuidelijke Indische Oceaan",
      "hr": "Francuski južni i antarktički teritoriji",
      "fa": "سرزمین‌های جنوبی و جنوبگانی فرانسه",
      "tr": "Fransız Güney Toprakları"
    }
  },
  {
    "name": "Gabon",
    "native_name": "Gabon",
    "alpha2_code": "GA",
    "numeric_code": 266,
    "capital": "Libreville",
    "region": "Africa",
    "lat_long": [
      -1,
      11.75
    ],
    "languages": [
      {
        "iso_code": "fr",
        "name": "French",
        "native_name": "français"
      }
    ],
    "translations": {
      "de": "Gabun",
      "es": "Gabón",
      "fr": "Gabon",
      "ja": "ガボン",
      "it": "Gabon",
      "br": "Gabão",
      "pt": "Gabão",
      "nl": "Gabon",
      "hr": "Gabon",
      "fa": "گابن",
      "tr": "Gabon"
    }
  },
  {
    "name": "Gambia",
    "native_name": "Gambia",
    "alpha2_code": "GM",
    "numeric_code": 270,
    "capital": "Banjul",
    "region": "Africa",
    "lat_long": [
      13.46666666,
      -16.56666666
    ],
    "languages": [
      {
        "iso_code": "en",
        "name": "English",
        "native_name": "English"
      }
    ],
    "translations": {
      "de": "Gambia",
      "es": "Gambia",
      "fr": "Gambie",
      "ja": "ガンビア",
      "it": "Gambia",
      "br": "Gâmbia",
      "pt": "Gâmbia",
      "nl": "Gambia",
      "hr": "Gambija",
      "fa": "گامبیا",
      "tr": "Gambiya"
    }
  },
  {
    "name": "Georgia",
    "native_name": "საქართველო",
    "alpha2_code": "GE",
    "numeric_code": 268,
    "capital": "Tbilisi",
    "region": "Asia",
    "lat_long": [
      42,
      43.5
    ],
    "languages": [
      {
        "iso_code": "ka",
        "name": "Georgian",
        "native_name": "ქართული"
      }
    ],
    "translations": {
      "de": "Georgien",
      "es": "Georgia",
      "fr": "Géorgie",
      "ja": "グルジア",
      "it": "Georgia",
      "br": "Geórgia",
      "pt": "Geórgia",
      "nl": "Georgië",
      "hr": "Gruzija",
      "fa": "گرجستان",
      "tr": "Georgia"
    }
  },
  {
    "name": "Germany",
    "native_name": "Deutschland",
    "alpha2_code": "DE",
    "numeric_code": 276,
    "capital": "Berlin",
    "region": "Europe",
    "lat_long": [
      51,
      9
    ],
    "languages": [
      {
        "iso_code": "de",
        "name": "German",
        "native_name": "Deutsch"
      }
    ],
    "translations": {
      "de": "Deutschland",
      "es": "Alemania",
      "fr": "Allemagne",
      "ja": "ドイツ",
      "it": "Germania",
      "br": "Alemanha",
      "pt": "Alemanha",
      "nl": "Duitsland",
      "hr": "Njemačka",
      "fa": "آلمان",
      "tr": "Almanya"
    }
  },
  {
    "name": "Ghana",
    "native_name": "Ghana",
    "alpha2_code": "GH",
    "numeric_code": 288,
    "capital": "Accra",
    "region": "Africa",
    "lat_long": [
      8,
      -2
    ],
    "languages": [
      {
        "iso_code": "en",
        "name": "English",
        "native_name": "English"
      }
    ],
    "translations": {
      "de": "Ghana",
      "es": "Ghana",
      "fr": "Ghana",
      "ja": "ガーナ",
      "it": "Ghana",
      "br": "Gana",
      "pt": "Gana",
      "nl": "Ghana",
      "hr": "Gana",
      "fa": "غنا",
      "tr": "Gana"
    }
  },
  {
    "name": "Gibraltar",
    "native_name": "Gibraltar",
    "alpha2_code": "GI",
    "numeric_code": 292,
    "capital": "Gibraltar",
    "region": "Europe",
    "lat_long": [
      36.13333333,
      -5.35
    ],
    "languages": [
      {
        "iso_code": "en",
        "name": "English",
        "native_name": "English"
      }
    ],
    "translations": {
      "de": "Gibraltar",
      "es": "Gibraltar",
      "fr": "Gibraltar",
      "ja": "ジブラルタル",
      "it": "Gibilterra",
      "br": "Gibraltar",
      "pt": "Gibraltar",
      "nl": "Gibraltar",
      "hr": "Gibraltar",
      "fa": "جبل‌طارق",
      "tr": "Cebelitarık"
    }
  },
  {
    "name": "Greece",
    "native_name": "Ελλάδα",
    "alpha2_code": "GR",
    "numeric_code": 300,
    "capital": "Athens",
    "region": "Europe",
    "lat_long": [
      39,
      22
    ],
    "languages": [
      {
        "iso_code": "el",
        "name": "Greek (modern)",
        "native_name": "ελληνικά"
      }
    ],
    "translations": {
      "de": "Griechenland",
      "es": "Grecia",
      "fr": "Grèce",
      "ja": "ギリシャ",
      "it": "Grecia",
      "br": "Grécia",
      "pt": "Grécia",
      "nl": "Griekenland",
      "hr": "Grčka",
      "fa": "یونان",
      "tr": "Yunanistan"
    }
  },
  {
    "name": "Greenland",
    "native_name": "Kalaallit Nunaat",
    "alpha2_code": "GL",
    "numeric_code": 304,
    "capital": "Nuuk",
    "region": "Americas",
    "lat_long": [
      72,
      -40
    ],
    "languages": [
      {
        "iso_code": "kl",
        "name": "Kalaallisut",
        "native_name": "kalaallisut"
      }
    ],
    "translations": {
      "de": "Grönland",
      "es": "Groenlandia",
      "fr": "Groenland",
      "ja": "グリーンランド",
      "it": "Groenlandia",
      "br": "Groelândia",
      "pt": "Gronelândia",
      "nl": "Groenland",
      "hr": "Grenland",
      "fa": "گرینلند",
      "tr": "Grönland"
    }
  },
  {
    "name": "Grenada",
    "native_name": "Grenada",
    "alpha2_code": "GD",
    "numeric_code": 308,
    "capital": "St. George's",
    "region": "Americas",
    "lat_long": [
      12.11666666,
      -61.66666666
    ],
    "languages": [
      {
        "iso_code": "en",
        "name": "English",
        "native_name": "English"
      }
    ],
    "translations": {
      "de": "Grenada",
      "es": "Grenada",
      "fr": "Grenade",
      "ja": "グレナダ",
      "it": "Grenada",
      "br": "Granada",
      "pt": "Granada",
      "nl": "Grenada",
      "hr": "Grenada",
      "fa": "گرنادا",
      "tr": "Grenada"
    }
  },
  {
    "name": "Guadeloupe",
    "native_name": "Guadeloupe",
    "alpha2_code": "GP",
    "numeric_code": 312,
    "capital": "Basse-Terre",
    "region": "Americas",
    "lat_long": [
      16.25,
      -61.583333
    ],
    "languages": [
      {
        "iso_code": "fr",
        "name": "French",
        "native_name": "français"
      }
    ],
    "translations": {
      "de": "Guadeloupe",
      "es": "Guadalupe",
      "fr": "Guadeloupe",
      "ja": "グアドループ",
      "it": "Guadeloupa",
      "br": "Guadalupe",
      "pt": "Guadalupe",
      "nl": "Guadeloupe",
      "hr": "Gvadalupa",
      "fa": "جزیره گوادلوپ",
      "tr": "Guadeloupe"
    }
  },
  {
    "name": "Guam",
    "native_name": "Guam",
    "alpha2_code": "GU",
    "numeric_code": 316,
    "capital": "Hagåtña",
    "region": "Oceania",
    "lat_long": [
      13.46666666,
      144.78333333
    ],
    "languages": [
      {
        "iso_code": "en",
        "name": "English",
        "native_name": "English"
      },
      {
        "iso_code": "ch",
        "name": "Chamorro",
        "native_name": "Chamoru"
      },
      {
        "iso_code": "es",
        "name": "Spanish",
        "native_name": "Español"
      }
    ],
    "translations": {
      "de": "Guam",
      "es": "Guam",
      "fr": "Guam",
      "ja": "グアム",
      "it": "Guam",
      "br": "Guam",
      "pt": "Guame",
      "nl": "Guam",
      "hr": "Guam",
      "fa": "گوام",
      "tr": "Guam"
    }
  },
  {
    "name": "Guatemala",
    "native_name": "Guatemala",
    "alpha2_code": "GT",
    "numeric_code": 320,
    "capital": "Guatemala City",
    "region": "Americas",
    "lat_long": [
      15.5,
      -90.25
    ],
    "languages": [
      {
        "iso_code": "es",
        "name": "Spanish",
        "native_name": "Español"
      }
    ],
    "translations": {
      "de": "Guatemala",
      "es": "Guatemala",
      "fr": "Guatemala",
      "ja": "グアテマラ",
      "it": "Guatemala",
      "br": "Guatemala",
      "pt": "Guatemala",
      "nl": "Guatemala",
      "hr": "Gvatemala",
      "fa": "گواتمالا",
      "tr": "Guatemala"
    }
  },
  {
    "name": "Guernsey",
    "native_name": "Guernsey",
    "alpha2_code": "GG",
    "numeric_code": 831,
    "capital": "St. Peter Port",
    "region": "Europe",
    "lat_long": [
      49.46666666,
      -2.58333333
    ],
    "languages": [
      {
        "iso_code": "en",
        "name": "English",
        "native_name": "English"
      },
      {
        "iso_code": "fr",
        "name": "French",
        "native_name": "français"
      }
    ],
    "translations": {
      "de": "Guernsey",
      "es": "Guernsey",
      "fr": "Guernesey",
      "ja": "ガーンジー",
      "it": "Guernsey",
      "br": "Guernsey",
      "pt": "Guernsey",
      "nl": "Guernsey",
      "hr": "Guernsey",
      "fa": "گرنزی",
      "tr": "Guernsey"
    }
  },
  {
    "name": "Guinea",
    "native_name": "Guinée",
    "alpha2_code": "GN",
    "numeric_code": 324,
    "capital": "Conakry",
    "region": "Africa",
    "lat_long": [
      11,
      -10
    ],
    "languages": [
      {
        "iso_code": "fr",
        "name": "French",
        "native_name": "français"
      },
      {
        "iso_code": "ff",
        "name": "Fula",
        "native_name": "Fulfulde"
      }
    ],
    "translations": {
      "de": "Guinea",
      "es": "Guinea",
      "fr": "Guinée",
      "ja": "ギニア",
      "it": "Guinea",
      "br": "Guiné",
      "pt": "Guiné",
      "nl": "Guinee",
      "hr": "Gvineja",
      "fa": "گینه",
      "tr": "Gine"
    }
  },
  {
    "name": "Guinea-Bissau",
    "native_name": "Guiné-Bissau",
    "alpha2_code": "GW",
    "numeric_code": 624,
    "capital": "Bissau",
    "region": "Africa",
    "lat_long": [
      12,
      -15
    ],
    "languages": [
      {
        "iso_code": "pt",
        "name": "Portuguese",
        "native_name": "Português"
      }
    ],
    "translations": {
      "de": "Guinea-Bissau",
      "es": "Guinea-Bisáu",
      "fr": "Guinée-Bissau",
      "ja": "ギニアビサウ",
      "it": "Guinea-Bissau",
      "br": "Guiné-Bissau",
      "pt": "Guiné-Bissau",
      "nl": "Guinee-Bissau",
      "hr": "Gvineja Bisau",
      "fa": "گینه بیسائو",
      "tr": "Gine-Bissau"
    }
  },
  {
    "name": "Guyana",
    "native_name": "Guyana",
    "alpha2_code": "GY",
    "numeric_code": 328,
    "capital": "Georgetown",
    "region": "Americas",
    "lat_long": [
      5,
      -59
    ],
    "languages": [
      {
        "iso_code": "en",
        "name": "English",
        "native_name": "English"
      }
    ],
    "translations": {
      "de": "Guyana",
      "es": "Guyana",
      "fr": "Guyane",
      "ja": "ガイアナ",
      "it": "Guyana",
      "br": "Guiana",
      "pt": "Guiana",
      "nl": "Guyana",
      "hr": "Gvajana",
      "fa": "گویان",
      "tr": "Guyana"
    }
  },
  {
    "name": "Haiti",
    "native_name": "Haïti",
    "alpha2_code": "HT",
    "numeric_code": 332,
    "capital": "Port-au-Prince",
    "region": "Americas",
    "lat_long": [
      19,
      -72.41666666
    ],
    "languages": [
      {
        "iso_code": "fr",
        "name": "French",
        "native_name": "français"
      },
      {
        "iso_code": "ht",
        "name": "Haitian",
        "native_name": "Kreyòl ayisyen"
      }
    ],
    "translations": {
      "de": "Haiti",
      "es": "Haiti",
      "fr": "Haïti",
      "ja": "ハイチ",
      "it": "Haiti",
      "br": "Haiti",
      "pt": "Haiti",
      "nl": "Haïti",
      "hr": "Haiti",
      "fa": "هائیتی",
      "tr": "Haiti"
    }
  },
  {
    "name": "Heard Island and McDonald Islands",
    "native_name": "Heard Island and McDonald Islands",
    "alpha2_code": "HM",
    "numeric_code": 334,
    "capital": null,
    "region": null,
    "lat_long": [
      -53.1,
      72.51666666
    ],
    "languages": [
      {
        "iso_code": "en",
        "name": "English",
        "native_name": "English"
      }
    ],
    "translations": {
      "de": "Heard und die McDonaldinseln",
      "es": "Islas Heard y McDonald",
      "fr": "Îles Heard-et-MacDonald",
      "ja": "ハード島とマクドナルド諸島",
      "it": "Isole Heard e McDonald",
      "br": "Ilha Heard e Ilhas McDonald",
      "pt": "Ilha Heard e Ilhas McDonald",
      "nl": "Heard- en McDonaldeilanden",
      "hr": "Otok Heard i otočje McDonald",
      "fa": "جزیره هرد و جزایر مک‌دونالد",
      "tr": "Heard Adası ve McDonald Adaları"
    }
  },
  {
    "name": "Holy See",
    "native_name": "Sancta Sedes",
    "alpha2_code": "VA",
    "numeric_code": 336,
    "capital": "Rome",
    "region": "Europe",
    "lat_long": [
      41.9,
      12.45
    ],
    "languages": [
      {
        "iso_code": "la",
        "name": "Latin",
        "native_name": "latine"
      },
      {
        "iso_code": "it",
        "name": "Italian",
        "native_name": "Italiano"
      },
      {
        "iso_code": "fr",
        "name": "French",
        "native_name": "français"
      },
      {
        "iso_code": "de",
        "name": "German",
        "native_name": "Deutsch"
      }
    ],
    "translations": {
      "de": "Heiliger Stuhl",
      "es": "Santa Sede",
      "fr": "voir Saint",
      "ja": "聖座",
      "it": "Santa Sede",
      "br": "Vaticano",
      "pt": "Vaticano",
      "nl": "Heilige Stoel",
      "hr": "Sveta Stolica",
      "fa": "سریر مقدس",
      "tr": "Kutsal Makam"
    }
  },
  {
    "name": "Honduras",
    "native_name": "Honduras",
    "alpha2_code": "HN",
    "numeric_code": 340,
    "capital": "Tegucigalpa",
    "region": "Americas",
    "lat_long": [
      15,
      -86.5
    ],
    "languages": [
      {
        "iso_code": "es",
        "name": "Spanish",
        "native_name": "Español"
      }
    ],
    "translations": {
      "de": "Honduras",
      "es": "Honduras",
      "fr": "Honduras",
      "ja": "ホンジュラス",
      "it": "Honduras",
      "br": "Honduras",
      "pt": "Honduras",
      "nl": "Honduras",
      "hr": "Honduras",
      "fa": "هندوراس",
      "tr": "Honduras"
    }
  },
  {
    "name": "Hong Kong",
    "native_name": "香港",
    "alpha2_code": "HK",
    "numeric_code": 344,
    "capital": "City of Victoria",
    "region": "Asia",
    "lat_long": [
      22.25,
      114.16666666
    ],
    "languages": [
      {
        "iso_code": "en",
        "name": "English",
        "native_name": "English"
      },
      {
        "iso_code": "zh",
        "name": "Chinese",
        "native_name": "中文 (Zhōngwén)"
      }
    ],
    "translations": {
      "de": "Hong Kong",
      "es": "Hong Kong",
      "fr": "Hong Kong",
      "ja": "香港",
      "it": "Hong Kong",
      "br": "Hong Kong",
      "pt": "Hong Kong",
      "nl": "Hongkong",
      "hr": "Hong Kong",
      "fa": "هنگ‌کنگ",
      "tr": "Hong Kong"
    }
  },
  {
    "name": "Hungary",
    "native_name": "Magyarország",
    "alpha2_code": "HU",
    "numeric_code": 348,
    "capital": "Budapest",
    "region": "Europe",
    "lat_long": [
      47,
      20
    ],
    "languages": [
      {
        "iso_code": "hu",
        "name": "Hungarian",
        "native_name": "magyar"
      }
    ],
    "translations": {
      "de": "Ungarn",
      "es": "Hungría",
      "fr": "Hongrie",
      "ja": "ハンガリー",
      "it": "Ungheria",
      "br": "Hungria",
      "pt": "Hungria",
      "nl": "Hongarije",
      "hr": "Mađarska",
      "fa": "مجارستان",
      "tr": "Macaristan"
    }
  },
  {
    "name": "Iceland",
    "native_name": "Ísland",
    "alpha2_code": "IS",
    "numeric_code": 352,
    "capital": "Reykjavík",
    "region": "Europe",
    "lat_long": [
      65,
      -18
    ],
    "languages": [
      {
        "iso_code": "is",
        "name": "Icelandic",
        "native_name": "Íslenska"
      }
    ],
    "translations": {
      "de": "Island",
      "es": "Islandia",
      "fr": "Islande",
      "ja": "アイスランド",
      "it": "Islanda",
      "br": "Islândia",
      "pt": "Islândia",
      "nl": "IJsland",
      "hr": "Island",
      "fa": "ایسلند",
      "tr": "İzlanda"
    }
  },
  {
    "name": "India",
    "native_name": "भारत",
    "alpha2_code": "IN",
    "numeric_code": 356,
    "capital": "New Delhi",
    "region": "Asia",
    "lat_long": [
      20,
      77
    ],
    "languages": [
      {
        "iso_code": "hi",
        "name": "Hindi",
        "native_name": "हिन्दी"
      },
      {
        "iso_code": "en",
        "name": "English",
        "native_name": "English"
      }
    ],
    "translations": {
      "de": "Indien",
      "es": "India",
      "fr": "Inde",
      "ja": "インド",
      "it": "India",
      "br": "Índia",
      "pt": "Índia",
      "nl": "India",
      "hr": "Indija",
      "fa": "هند",
      "tr": "Hindistan"
    }
  },
  {
    "name": "Indonesia",
    "native_name": "Indonesia",
    "alpha2_code": "ID",
    "numeric_code": 360,
    "capital": "Jakarta",
    "region": "Asia",
    "lat_long": [
      -5,
      120
    ],
    "languages": [
      {
        "iso_code": "id",
        "name": "Indonesian",
        "native_name": "Bahasa Indonesia"
      }
    ],
    "translations": {
      "de": "Indonesien",
      "es": "Indonesia",
      "fr": "Indonésie",
      "ja": "インドネシア",
      "it": "Indonesia",
      "br": "Indonésia",
      "pt": "Indonésia",
      "nl": "Indonesië",
      "hr": "Indonezija",
      "fa": "اندونزی",
      "tr": "Endonezya"
    }
  },
  {
    "name": "Côte d'Ivoire",
    "native_name": "Côte d'Ivoire",
    "alpha2_code": "CI",
    "numeric_code": 384,
    "capital": "Yamoussoukro",
    "region": "Africa",
    "lat_long": [
      8,
      -5
    ],
    "languages": [
      {
        "iso_code": "fr",
        "name": "French",
        "native_name": "français"
      }
    ],
    "translations": {
      "de": "Elfenbeinküste",
      "es": "Costa de Marfil",
      "fr": "Côte d'Ivoire",
      "ja": "コートジボワール",
      "it": "Costa D'Avorio",
      "br": "Costa do Marfim",
      "pt": "Costa do Marfim",
      "nl": "Ivoorkust",
      "hr": "Obala Bjelokosti",
      "fa": "ساحل عاج",
      "tr": "Fildişi Sahili"
    }
  },
  {
    "name": "Iran",
    "native_name": "ایران",
    "alpha2_code": "IR",
    "numeric_code": 364,
    "capital": "Tehran",
    "region": "Asia",
    "lat_long": [
      32,
      53
    ],
    "languages": [
      {
        "iso_code": "fa",
        "name": "Persian (Farsi)",
        "native_name": "فارسی"
      }
    ],
    "translations": {
      "de": "Iran",
      "es": "Iran",
      "fr": "Iran",
      "ja": "イラン・イスラム共和国",
      "br": "Irã",
      "pt": "Irão",
      "nl": "Iran",
      "hr": "Iran",
      "fa": "ایران",
      "tr": "İran İslam Cumhuriyeti"
    }
  },
  {
    "name": "Iraq",
    "native_name": "العراق",
    "alpha2_code": "IQ",
    "numeric_code": 368,
    "capital": "Baghdad",
    "region": "Asia",
    "lat_long": [
      33,
      44
    ],
    "languages": [
      {
        "iso_code": "ar",
        "name": "Arabic",
        "native_name": "العربية"
      },
      {
        "iso_code": "ku",
        "name": "Kurdish",
        "native_name": "Kurdî"
      }
    ],
    "translations": {
      "de": "Irak",
      "es": "Irak",
      "fr": "Irak",
      "ja": "イラク",
      "it": "Iraq",
      "br": "Iraque",
      "pt": "Iraque",
      "nl": "Irak",
      "hr": "Irak",
      "fa": "عراق",
      "tr": "Irak"
    }
  },
  {
    "name": "Ireland",
    "native_name": "Éire",
    "alpha2_code": "IE",
    "numeric_code": 372,
    "capital": "Dublin",
    "region": "Europe",
    "lat_long": [
      53,
      -8
    ],
    "languages": [
      {
        "iso_code": "ga",
        "name": "Irish",
        "native_name": "Gaeilge"
      },
      {
        "iso_code": "en",
        "name": "English",
        "native_name": "English"
      }
    ],
    "translations": {
      "de": "Irland",
      "es": "Irlanda",
      "fr": "Irlande",
      "ja": "アイルランド",
      "it": "Irlanda",
      "br": "Irlanda",
      "pt": "Irlanda",
      "nl": "Ierland",
      "hr": "Irska",
      "fa": "ایرلند",
      "tr": "İrlanda"
    }
  },
  {
    "name": "Isle of Man",
    "native_name": "Isle of Man",
    "alpha2_code": "IM",
    "numeric_code": 833,
    "capital": "Douglas",
    "region": "Europe",
    "lat_long": [
      54.25,
      -4.5
    ],
    "languages": [
      {
        "iso_code": "en",
        "name": "English",
        "native_name": "English"
      },
      {
        "iso_code": "gv",
        "name": "Manx",
        "native_name": "Gaelg"
      }
    ],
    "translations": {
      "de": "Insel Man",
      "es": "Isla de Man",
      "fr": "Île de Man",
      "ja": "マン島",
      "it": "Isola di Man",
      "br": "Ilha de Man",
      "pt": "Ilha de Man",
      "nl": "Isle of Man",
      "hr": "Otok Man",
      "fa": "جزیره من",
      "tr": "Man Adası "
    }
  },
  {
    "name": "Israel",
    "native_name": "יִשְׂרָאֵל",
    "alpha2_code": "IL",
    "numeric_code": 376,
    "capital": "Jerusalem",
    "region": "Asia",
    "lat_long": [
      31.5,
      34.75
    ],
    "languages": [
      {
        "iso_code": "he",
        "name": "Hebrew (modern)",
        "native_name": "עברית"
      },
      {
        "iso_code": "ar",
        "name": "Arabic",
        "native_name": "العربية"
      }
    ],
    "translations": {
      "de": "Israel",
      "es": "Israel",
      "fr": "Israël",
      "ja": "イスラエル",
      "it": "Israele",
      "br": "Israel",
      "pt": "Israel",
      "nl": "Israël",
      "hr": "Izrael",
      "fa": "اسرائیل",
      "tr": "İsrail"
    }
  },
  {
    "name": "Italy",
    "native_name": "Italia",
    "alpha2_code": "IT",
    "numeric_code": 380,
    "capital": "Rome",
    "region": "Europe",
    "lat_long": [
      42.83333333,
      12.83333333
    ],
    "languages": [
      {
        "iso_code": "it",
        "name": "Italian",
        "native_name": "Italiano"
      }
    ],
    "translations": {
      "de": "Italien",
      "es": "Italia",
      "fr": "Italie",
      "ja": "イタリア",
      "it": "Italia",
      "br": "Itália",
      "pt": "Itália",
      "nl": "Italië",
      "hr": "Italija",
      "fa": "ایتالیا",
      "tr": "İtalya"
    }
  },
  {
    "name": "Jamaica",
    "native_name": "Jamaica",
    "alpha2_code": "JM",
    "numeric_code": 388,
    "capital": "Kingston",
    "region": "Americas",
    "lat_long": [
      18.25,
      -77.5
    ],
    "languages": [
      {
        "iso_code": "en",
        "name": "English",
        "native_name": "English"
      }
    ],
    "translations": {
      "de": "Jamaika",
      "es": "Jamaica",
      "fr": "Jamaïque",
      "ja": "ジャマイカ",
      "it": "Giamaica",
      "br": "Jamaica",
      "pt": "Jamaica",
      "nl": "Jamaica",
      "hr": "Jamajka",
      "fa": "جامائیکا",
      "tr": "Jamaica"
    }
  },
  {
    "name": "Japan",
    "native_name": "日本",
    "alpha2_code": "JP",
    "numeric_code": 392,
    "capital": "Tokyo",
    "region": "Asia",
    "lat_long": [
      36,
      138
    ],
    "languages": [
      {
        "iso_code": "ja",
        "name": "Japanese",
        "native_name": "日本語 (にほんご)"
      }
    ],
    "translations": {
      "de": "Japan",
      "es": "Japón",
      "fr": "Japon",
      "ja": "日本",
      "it": "Giappone",
      "br": "Japão",
      "pt": "Japão",
      "nl": "Japan",
      "hr": "Japan",
      "fa": "ژاپن",
      "tr": "Japonya"
    }
  },
  {
    "name": "Jersey",
    "native_name": "Jersey",
    "alpha2_code": "JE",
    "numeric_code": 832,
    "capital": "Saint Helier",
    "region": "Europe",
    "lat_long": [
      49.25,
      -2.16666666
    ],
    "languages": [
      {
        "iso_code": "en",
        "name": "English",
        "native_name": "English"
      },
      {
        "iso_code": "fr",
        "name": "French",
        "native_name": "français"
      }
    ],
    "translations": {
      "de": "Jersey",
      "es": "Jersey",
      "fr": "Jersey",
      "ja": "ジャージー",
      "it": "Isola di Jersey",
      "br": "Jersey",
      "pt": "Jersey",
      "nl": "Jersey",
      "hr": "Jersey",
      "fa": "جرزی",
      "tr": "Jersey"
    }
  },
  {
    "name": "Jordan",
    "native_name": "الأردن",
    "alpha2_code": "JO",
    "numeric_code": 400,
    "capital": "Amman",
    "region": "Asia",
    "lat_long": [
      31,
      36
    ],
    "languages": [
      {
        "iso_code": "ar",
        "name": "Arabic",
        "native_name": "العربية"
      }
    ],
    "translations": {
      "de": "Jordanien",
      "es": "Jordania",
      "fr": "Jordanie",
      "ja": "ヨルダン",
      "it": "Giordania",
      "br": "Jordânia",
      "pt": "Jordânia",
      "nl": "Jordanië",
      "hr": "Jordan",
      "fa": "اردن",
      "tr": "Jordan"
    }
  },
  {
    "name": "Kazakhstan",
    "native_name": "Қазақстан",
    "alpha2_code": "KZ",
    "numeric_code": 398,
    "capital": "Astana",
    "region": "Asia",
    "lat_long": [
      48,
      68
    ],
    "languages": [
      {
        "iso_code": "kk",
        "name": "Kazakh",
        "native_name": "қазақ тілі"
      },
      {
        "iso_code": "ru",
        "name": "Russian",
        "native_name": "Русский"
      }
    ],
    "translations": {
      "de": "Kasachstan",
      "es": "Kazajistán",
      "fr": "Kazakhstan",
      "ja": "カザフスタン",
      "it": "Kazakistan",
      "br": "Cazaquistão",
      "pt": "Cazaquistão",
      "nl": "Kazachstan",
      "hr": "Kazahstan",
      "fa": "قزاقستان",
      "tr": "Kazakistan"
    }
  },
  {
    "name": "Kenya",
    "native_name": "Kenya",
    "alpha2_code": "KE",
    "numeric_code": 404,
    "capital": "Nairobi",
    "region": "Africa",
    "lat_long": [
      1,
      38
    ],
    "languages": [
      {
        "iso_code": "en",
        "name": "English",
        "native_name": "English"
      },
      {
        "iso_code": "sw",
        "name": "Swahili",
        "native_name": "Kiswahili"
      }
    ],
    "translations": {
      "de": "Kenia",
      "es": "Kenia",
      "fr": "Kenya",
      "ja": "ケニア",
      "it": "Kenya",
      "br": "Quênia",
      "pt": "Quénia",
      "nl": "Kenia",
      "hr": "Kenija",
      "fa": "کنیا",
      "tr": "Kenya"
    }
  },
  {
    "name": "Kiribati",
    "native_name": "Kiribati",
    "alpha2_code": "KI",
    "numeric_code": 296,
    "capital": "South Tarawa",
    "region": "Oceania",
    "lat_long": [
      1.41666666,
      173
    ],
    "languages": [
      {
        "iso_code": "en",
        "name": "English",
        "native_name": "English"
      }
    ],
    "translations": {
      "de": "Kiribati",
      "es": "Kiribati",
      "fr": "Kiribati",
      "ja": "キリバス",
      "it": "Kiribati",
      "br": "Kiribati",
      "pt": "Quiribáti",
      "nl": "Kiribati",
      "hr": "Kiribati",
      "fa": "کیریباتی",
      "tr": "Kiribati"
    }
  },
  {
    "name": "Kuwait",
    "native_name": "الكويت",
    "alpha2_code": "KW",
    "numeric_code": 414,
    "capital": "Kuwait City",
    "region": "Asia",
    "lat_long": [
      29.5,
      45.75
    ],
    "languages": [
      {
        "iso_code": "ar",
        "name": "Arabic",
        "native_name": "العربية"
      }
    ],
    "translations": {
      "de": "Kuwait",
      "es": "Kuwait",
      "fr": "Koweït",
      "ja": "クウェート",
      "it": "Kuwait",
      "br": "Kuwait",
      "pt": "Kuwait",
      "nl": "Koeweit",
      "hr": "Kuvajt",
      "fa": "کویت",
      "tr": "Kuveyt"
    }
  },
  {
    "name": "Kyrgyzstan",
    "native_name": "Кыргызстан",
    "alpha2_code": "KG",
    "numeric_code": 417,
    "capital": "Bishkek",
    "region": "Asia",
    "lat_long": [
      41,
      75
    ],
    "languages": [
      {
        "iso_code": "ky",
        "name": "Kyrgyz",
        "native_name": "Кыргызча"
      },
      {
        "iso_code": "ru",
        "name": "Russian",
        "native_name": "Русский"
      }
    ],
    "translations": {
      "de": "Kirgisistan",
      "es": "Kirguizistán",
      "fr": "Kirghizistan",
      "ja": "キルギス",
      "it": "Kirghizistan",
      "br": "Quirguistão",
      "pt": "Quirguizistão",
      "nl": "Kirgizië",
      "hr": "Kirgistan",
      "fa": "قرقیزستان",
      "tr": "Kırgızistan"
    }
  },
  {
    "name": "Lao People's Democratic Republic",
    "native_name": "ສປປລາວ",
    "alpha2_code": "LA",
    "numeric_code": 418,
    "capital": "Vientiane",
    "region": "Asia",
    "lat_long": [
      18,
      105
    ],
    "languages": [
      {
        "iso_code": "lo",
        "name": "Lao",
        "native_name": "ພາສາລາວ"
      }
    ],
    "translations": {
      "de": "Laos",
      "es": "Laos",
      "fr": "Laos",
      "ja": "ラオス人民民主共和国",
      "it": "Laos",
      "br": "Laos",
      "pt": "Laos",
      "nl": "Laos",
      "hr": "Laos",
      "fa": "لائوس",
      "tr": "Lao Demokratik Halk Cumhuriyeti"
    }
  },
  {
    "name": "Latvia",
    "native_name": "Latvija",
    "alpha2_code": "LV",
    "numeric_code": 428,
    "capital": "Riga",
    "region": "Europe",
    "lat_long": [
      57,
      25
    ],
    "languages": [
      {
        "iso_code": "lv",
        "name": "Latvian",
        "native_name": "latviešu valoda"
      }
    ],
    "translations": {
      "de": "Lettland",
      "es": "Letonia",
      "fr": "Lettonie",
      "ja": "ラトビア",
      "it": "Lettonia",
      "br": "Letônia",
      "pt": "Letónia",
      "nl": "Letland",
      "hr": "Latvija",
      "fa": "لتونی",
      "tr": "Letonya"
    }
  },
  {
    "name": "Lebanon",
    "native_name": "لبنان",
    "alpha2_code": "LB",
    "numeric_code": 422,
    "capital": "Beirut",
    "region": "Asia",
    "lat_long": [
      33.83333333,
      35.83333333
    ],
    "languages": [
      {
        "iso_code": "ar",
        "name": "Arabic",
        "native_name": "العربية"
      },
      {
        "iso_code": "fr",
        "name": "French",
        "native_name": "français"
      }
    ],
    "translations": {
      "de": "Libanon",
      "es": "Líbano",
      "fr": "Liban",
      "ja": "レバノン",
      "it": "Libano",
      "br": "Líbano",
      "pt": "Líbano",
      "nl": "Libanon",
      "hr": "Libanon",
      "fa": "لبنان",
      "tr": "Lübnan"
    }
  },
  {
    "name": "Lesotho",
    "native_name": "Lesotho",
    "alpha2_code": "LS",
    "numeric_code": 426,
    "capital": "Maseru",
    "region": "Africa",
    "lat_long": [
      -29.5,
      28.5
    ],
    "languages": [
      {
        "iso_code": "en",
        "name": "English",
        "native_name": "English"
      },
      {
        "iso_code": "st",
        "name": "Southern Sotho",
        "native_name": "Sesotho"
      }
    ],
    "translations": {
      "de": "Lesotho",
      "es": "Lesotho",
      "fr": "Lesotho",
      "ja": "レソト",
      "it": "Lesotho",
      "br": "Lesoto",
      "pt": "Lesoto",
      "nl": "Lesotho",
      "hr": "Lesoto",
      "fa": "لسوتو",
      "tr": "Lesotho"
    }
  },
  {
    "name": "Liberia",
    "native_name": "Liberia",
    "alpha2_code": "LR",
    "numeric_code": 430,
    "capital": "Monrovia",
    "region": "Africa",
    "lat_long": [
      6.5,
      -9.5
    ],
    "languages": [
      {
        "iso_code": "en",
        "name": "English",
        "native_name": "English"
      }
    ],
    "translations": {
      "de": "Liberia",
      "es": "Liberia",
      "fr": "Liberia",
      "ja": "リベリア",
      "it": "Liberia",
      "br": "Libéria",
      "pt": "Libéria",
      "nl": "Liberia",
      "hr": "Liberija",
      "fa": "لیبریا",
      "tr": "Liberya"
    }
  },
  {
    "name": "Libya",
    "native_name": "‏ليبيا",
    "alpha2_code": "LY",
    "numeric_code": 434,
    "capital": "Tripoli",
    "region": "Africa",
    "lat_long": [
      25,
      17
    ],
    "languages": [
      {
        "iso_code": "ar",
        "name": "Arabic",
        "native_name": "العربية"
      }
    ],
    "translations": {
      "de": "Libyen",
      "es": "Libia",
      "fr": "Libye",
      "ja": "リビア",
      "it": "Libia",
      "br": "Líbia",
      "pt": "Líbia",
      "nl": "Libië",
      "hr": "Libija",
      "fa": "لیبی",
      "tr": "Libya"
    }
  },
  {
    "name": "Liechtenstein",
    "native_name": "Liechtenstein",
    "alpha2_code": "LI",
    "numeric_code": 438,
    "capital": "Vaduz",
    "region": "Europe",
    "lat_long": [
      47.26666666,
      9.53333333
    ],
    "languages": [
      {
        "iso_code": "de",
        "name": "German",
        "native_name": "Deutsch"
      }
    ],
    "translations": {
      "de": "Liechtenstein",
      "es": "Liechtenstein",
      "fr": "Liechtenstein",
      "ja": "リヒテンシュタイン",
      "it": "Liechtenstein",
      "br": "Liechtenstein",
      "pt": "Listenstaine",
      "nl": "Liechtenstein",
      "hr": "Lihtenštajn",
      "fa": "لیختن‌اشتاین",
      "tr": "Liechtenstein"
    }
  },
  {
    "name": "Lithuania",
    "native_name": "Lietuva",
    "alpha2_code": "LT",
    "numeric_code": 440,
    "capital": "Vilnius",
    "region": "Europe",
    "lat_long": [
      56,
      24
    ],
    "languages": [
      {
        "iso_code": "lt",
        "name": "Lithuanian",
        "native_name": "lietuvių kalba"
      }
    ],
    "translations": {
      "de": "Litauen",
      "es": "Lituania",
      "fr": "Lituanie",
      "ja": "リトアニア",
      "it": "Lituania",
      "br": "Lituânia",
      "pt": "Lituânia",
      "nl": "Litouwen",
      "hr": "Litva",
      "fa": "لیتوانی",
      "tr": "Litvanya"
    }
  },
  {
    "name": "Luxembourg",
    "native_name": "Luxembourg",
    "alpha2_code": "LU",
    "numeric_code": 442,
    "capital": "Luxembourg",
    "region": "Europe",
    "lat_long": [
      49.75,
      6.16666666
    ],
    "languages": [
      {
        "iso_code": "fr",
        "name": "French",
        "native_name": "français"
      },
      {
        "iso_code": "de",
        "name": "German",
        "native_name": "Deutsch"
      },
      {
        "iso_code": "lb",
        "name": "Luxembourgish",
        "native_name": "Lëtzebuergesch"
      }
    ],
    "translations": {
      "de": "Luxemburg",
      "es": "Luxemburgo",
      "fr": "Luxembourg",
      "ja": "ルクセンブルク",
      "it": "Lussemburgo",
      "br": "Luxemburgo",
      "pt": "Luxemburgo",
      "nl": "Luxemburg",
      "hr": "Luksemburg",
      "fa": "لوکزامبورگ",
      "tr": "Lüksemburg"
    }
  },
  {
    "name": "Macao",
    "native_name": "澳門",
    "alpha2_code": "MO",
    "numeric_code": 446,
    "capital": null,
    "region": "Asia",
    "lat_long": [
      22.16666666,
      113.55
    ],
    "languages": [
      {
        "iso_code": "zh",
        "name": "Chinese",
        "native_name": "中文 (Zhōngwén)"
      },
      {
        "iso_code": "pt",
        "name": "Portuguese",
        "native_name": "Português"
      }
    ],
    "translations": {
      "de": "Macao",
      "es": "Macao",
      "fr": "Macao",
      "ja": "マカオ",
      "it": "Macao",
      "br": "Macau",
      "pt": "Macau",
      "nl": "Macao",
      "hr": "Makao",
      "fa": "مکائو",
      "tr": "Macao"
    }
  },
  {
    "name": "Macedonia",
    "native_name": "Македонија",
    "alpha2_code": "MK",
    "numeric_code": 807,
    "capital": "Skopje",
    "region": "Europe",
    "lat_long": [
      41.83333333,
      22
    ],
    "languages": [
      {
        "iso_code": "mk",
        "name": "Macedonian",
        "native_name": "македонски јазик"
      }
    ],
    "translations": {
      "de": "Mazedonien",
      "es": "Macedonia",
      "fr": "Macédoine",
      "ja": "マケドニア旧ユーゴスラビア共和国",
      "it": "Macedonia",
      "br": "Macedônia",
      "pt": "Macedónia",
      "nl": "Macedonië",
      "hr": "Makedonija",
      "tr": "Makedonya"
    }
  },
  {
    "name": "Madagascar",
    "native_name": "Madagasikara",
    "alpha2_code": "MG",
    "numeric_code": 450,
    "capital": "Antananarivo",
    "region": "Africa",
    "lat_long": [
      -20,
      47
    ],
    "languages": [
      {
        "iso_code": "fr",
        "name": "French",
        "native_name": "français"
      },
      {
        "iso_code": "mg",
        "name": "Malagasy",
        "native_name": "fiteny malagasy"
      }
    ],
    "translations": {
      "de": "Madagaskar",
      "es": "Madagascar",
      "fr": "Madagascar",
      "ja": "マダガスカル",
      "it": "Madagascar",
      "br": "Madagascar",
      "pt": "Madagáscar",
      "nl": "Madagaskar",
      "hr": "Madagaskar",
      "fa": "ماداگاسکار",
      "tr": "Madagaskar"
    }
  },
  {
    "name": "Malawi",
    "native_name": "Malawi",
    "alpha2_code": "MW",
    "numeric_code": 454,
    "capital": "Lilongwe",
    "region": "Africa",
    "lat_long": [
      -13.5,
      34
    ],
    "languages": [
      {
        "iso_code": "en",
        "name": "English",
        "native_name": "English"
      },
      {
        "iso_code": "ny",
        "name": "Chichewa",
        "native_name": "chiCheŵa"
      }
    ],
    "translations": {
      "de": "Malawi",
      "es": "Malawi",
      "fr": "Malawi",
      "ja": "マラウイ",
      "it": "Malawi",
      "br": "Malawi",
      "pt": "Malávi",
      "nl": "Malawi",
      "hr": "Malavi",
      "fa": "مالاوی",
      "tr": "Malavi"
    }
  },
  {
    "name": "Malaysia",
    "native_name": "Malaysia",
    "alpha2_code": "MY",
    "numeric_code": 458,
    "capital": "Kuala Lumpur",
    "region": "Asia",
    "lat_long": [
      2.5,
      112.5
    ],
    "languages": [
      {
        "iso_code": null,
        "name": "Malaysian",
        "native_name": "بهاس مليسيا"
      }
    ],
    "translations": {
      "de": "Malaysia",
      "es": "Malasia",
      "fr": "Malaisie",
      "ja": "マレーシア",
      "it": "Malesia",
      "br": "Malásia",
      "pt": "Malásia",
      "nl": "Maleisië",
      "hr": "Malezija",
      "fa": "مالزی",
      "tr": "Malezya"
    }
  },
  {
    "name": "Maldives",
    "native_name": "Maldives",
    "alpha2_code": "MV",
    "numeric_code": 462,
    "capital": "Malé",
    "region": "Asia",
    "lat_long": [
      3.25,
      73
    ],
    "languages": [
      {
        "iso_code": "dv",
        "name": "Divehi",
        "native_name": "ދިވެހި"
      }
    ],
    "translations": {
      "de": "Malediven",
      "es": "Maldivas",
      "fr": "Maldives",
      "ja": "モルディブ",
      "it": "Maldive",
      "br": "Maldivas",
      "pt": "Maldivas",
      "nl": "Maldiven",
      "hr": "Maldivi",
      "fa": "مالدیو",
      "tr": "Maldivler"
    }
  },
  {
    "name": "Mali",
    "native_name": "Mali",
    "alpha2_code": "ML",
    "numeric_code": 466,
    "capital": "Bamako",
    "region": "Africa",
    "lat_long": [
      17,
      -4
    ],
    "languages": [
      {
        "iso_code": "fr",
        "name": "French",
        "native_name": "français"
      }
    ],
    "translations": {
      "de": "Mali",
      "es": "Mali",
      "fr": "Mali",
      "ja": "マリ",
      "it": "Mali",
      "br": "Mali",
      "pt": "Mali",
      "nl": "Mali",
      "hr": "Mali",
      "fa": "مالی",
      "tr": "Mali"
    }
  },
  {
    "name": "Malta",
    "native_name": "Malta",
    "alpha2_code": "MT",
    "numeric_code": 470,
    "capital": "Valletta",
    "region": "Europe",
    "lat_long": [
      35.83333333,
      14.58333333
    ],
    "languages": [
      {
        "iso_code": "mt",
        "name": "Maltese",
        "native_name": "Malti"
      },
      {
        "iso_code": "en",
        "name": "English",
        "native_name": "English"
      }
    ],
    "translations": {
      "de": "Malta",
      "es": "Malta",
      "fr": "Malte",
      "ja": "マルタ",
      "it": "Malta",
      "br": "Malta",
      "pt": "Malta",
      "nl": "Malta",
      "hr": "Malta",
      "fa": "مالت",
      "tr": "Malta"
    }
  },
  {
    "name": "Marshall Islands",
    "native_name": "M̧ajeļ",
    "alpha2_code": "MH",
    "numeric_code": 584,
    "capital": "Majuro",
    "region": "Oceania",
    "lat_long": [
      9,
      168
    ],
    "languages": [
      {
        "iso_code": "en",
        "name": "English",
        "native_name": "English"
      },
      {
        "iso_code": "mh",
        "name": "Marshallese",
        "native_name": "Kajin M̧ajeļ"
      }
    ],
    "translations": {
      "de": "Marshallinseln",
      "es": "Islas Marshall",
      "fr": "Îles Marshall",
      "ja": "マーシャル諸島",
      "it": "Isole Marshall",
      "br": "Ilhas Marshall",
      "pt": "Ilhas Marshall",
      "nl": "Marshalleilanden",
      "hr": "Maršalovi Otoci",
      "fa": "جزایر مارشال",
      "tr": "Marshall Adaları"
    }
  },
  {
    "name": "Martinique",
    "native_name": "Martinique",
    "alpha2_code": "MQ",
    "numeric_code": 474,
    "capital": "Fort-de-France",
    "region": "Americas",
    "lat_long": [
      14.666667,
      -61
    ],
    "languages": [
      {
        "iso_code": "fr",
        "name": "French",
        "native_name": "français"
      }
    ],
    "translations": {
      "de": "Martinique",
      "es": "Martinica",
      "fr": "Martinique",
      "ja": "マルティニーク",
      "it": "Martinica",
      "br": "Martinica",
      "pt": "Martinica",
      "nl": "Martinique",
      "hr": "Martinique",
      "fa": "مونتسرات",
      "tr": "Martinique"
    }
  },
  {
    "name": "Mauritania",
    "native_name": "موريتانيا",
    "alpha2_code": "MR",
    "numeric_code": 478,
    "capital": "Nouakchott",
    "region": "Africa",
    "lat_long": [
      20,
      -12
    ],
    "languages": [
      {
        "iso_code": "ar",
        "name": "Arabic",
        "native_name": "العربية"
      }
    ],
    "translations": {
      "de": "Mauretanien",
      "es": "Mauritania",
      "fr": "Mauritanie",
      "ja": "モーリタニア",
      "it": "Mauritania",
      "br": "Mauritânia",
      "pt": "Mauritânia",
      "nl": "Mauritanië",
      "hr": "Mauritanija",
      "fa": "موریتانی",
      "tr": "Moritanya"
    }
  },
  {
    "name": "Mauritius",
    "native_name": "Maurice",
    "alpha2_code": "MU",
    "numeric_code": 480,
    "capital": "Port Louis",
    "region": "Africa",
    "lat_long": [
      -20.28333333,
      57.55
    ],
    "languages": [
      {
        "iso_code": "en",
        "name": "English",
        "native_name": "English"
      }
    ],
    "translations": {
      "de": "Mauritius",
      "es": "Mauricio",
      "fr": "Île Maurice",
      "ja": "モーリシャス",
      "it": "Mauritius",
      "br": "Maurício",
      "pt": "Maurícia",
      "nl": "Mauritius",
      "hr": "Mauricijus",
      "fa": "موریس",
      "tr": "Mauritius"
    }
  },
  {
    "name": "Mayotte",
    "native_name": "Mayotte",
    "alpha2_code": "YT",
    "numeric_code": 175,
    "capital": "Mamoudzou",
    "region": "Africa",
    "lat_long": [
      -12.83333333,
      45.16666666
    ],
    "languages": [
      {
        "iso_code": "fr",
        "name": "French",
        "native_name": "français"
      }
    ],
    "translations": {
      "de": "Mayotte",
      "es": "Mayotte",
      "fr": "Mayotte",
      "ja": "マヨット",
      "it": "Mayotte",
      "br": "Mayotte",
      "pt": "Mayotte",
      "nl": "Mayotte",
      "hr": "Mayotte",
      "fa": "مایوت",
      "tr": "Mayotte"
    }
  },
  {
    "name": "Mexico",
    "native_name": "México",
    "alpha2_code": "MX",
    "numeric_code": 484,
    "capital": "Mexico City",
    "region": "Americas",
    "lat_long": [
      23,
      -102
    ],
    "languages": [
      {
        "iso_code": "es",
        "name": "Spanish",
        "native_name": "Español"
      }
    ],
    "translations": {
      "de": "Mexiko",
      "es": "México",
      "fr": "Mexique",
      "ja": "メキシコ",
      "it": "Messico",
      "br": "México",
      "pt": "México",
      "nl": "Mexico",
      "hr": "Meksiko",
      "fa": "مکزیک",
      "tr": "Meksika"
    }
  },
  {
    "name": "Micronesia",
    "native_name": "Micronesia",
    "alpha2_code": "FM",
    "numeric_code": 583,
    "capital": "Palikir",
    "region": "Oceania",
    "lat_long": [
      6.91666666,
      158.25
    ],
    "languages": [
      {
        "iso_code": "en",
        "name": "English",
        "native_name": "English"
      }
    ],
    "translations": {
      "de": "Mikronesien",
      "es": "Micronesia",
      "fr": "Micronésie",
      "ja": "ミクロネシア連邦",
      "it": "Micronesia",
      "br": "Micronésia",
      "pt": "Micronésia",
      "nl": "Micronesië",
      "hr": "Mikronezija",
      "fa": "ایالات فدرال میکرونزی",
      "tr": "Mikronezya "
    }
  },
  {
    "name": "Moldova",
    "native_name": "Moldova",
    "alpha2_code": "MD",
    "numeric_code": 498,
    "capital": "Chișinău",
    "region": "Europe",
    "lat_long": [
      47,
      29
    ],
    "languages": [
      {
        "iso_code": "ro",
        "name": "Romanian",
        "native_name": "Română"
      }
    ],
    "translations": {
      "de": "Moldawie",
      "es": "Moldavia",
      "fr": "Moldavie",
      "ja": "モルドバ共和国",
      "it": "Moldavia",
      "br": "Moldávia",
      "pt": "Moldávia",
      "nl": "Moldavië",
      "hr": "Moldova",
      "fa": "مولداوی",
      "tr": "Moldova "
    }
  },
  {
    "name": "Monaco",
    "native_name": "Monaco",
    "alpha2_code": "MC",
    "numeric_code": 492,
    "capital": "Monaco",
    "region": "Europe",
    "lat_long": [
      43.73333333,
      7.4
    ],
    "languages": [
      {
        "iso_code": "fr",
        "name": "French",
        "native_name": "français"
      }
    ],
    "translations": {
      "de": "Monaco",
      "es": "Mónaco",
      "fr": "Monaco",
      "ja": "モナコ",
      "it": "Principato di Monaco",
      "br": "Mônaco",
      "pt": "Mónaco",
      "nl": "Monaco",
      "hr": "Monako",
      "fa": "موناکو",
      "tr": "Monaco"
    }
  },
  {
    "name": "Mongolia",
    "native_name": "Монгол улс",
    "alpha2_code": "MN",
    "numeric_code": 496,
    "capital": "Ulan Bator",
    "region": "Asia",
    "lat_long": [
      46,
      105
    ],
    "languages": [
      {
        "iso_code": "mn",
        "name": "Mongolian",
        "native_name": "Монгол хэл"
      }
    ],
    "translations": {
      "de": "Mongolei",
      "es": "Mongolia",
      "fr": "Mongolie",
      "ja": "モンゴル",
      "it": "Mongolia",
      "br": "Mongólia",
      "pt": "Mongólia",
      "nl": "Mongolië",
      "hr": "Mongolija",
      "fa": "مغولستان",
      "tr": "Moğolistan"
    }
  },
  {
    "name": "Montenegro",
    "native_name": "Црна Гора",
    "alpha2_code": "ME",
    "numeric_code": 499,
    "capital": "Podgorica",
    "region": "Europe",
    "lat_long": [
      42.5,
      19.3
    ],
    "languages": [
      {
        "iso_code": "sr",
        "name": "Serbian",
        "native_name": "српски језик"
      },
      {
        "iso_code": "bs",
        "name": "Bosnian",
        "native_name": "bosanski jezik"
      },
      {
        "iso_code": "sq",
        "name": "Albanian",
        "native_name": "Shqip"
      },
      {
        "iso_code": "hr",
        "name": "Croatian",
        "native_name": "hrvatski jezik"
      }
    ],
    "translations": {
      "de": "Montenegro",
      "es": "Montenegro",
      "fr": "Monténégro",
      "ja": "モンテネグロ",
      "it": "Montenegro",
      "br": "Montenegro",
      "pt": "Montenegro",
      "nl": "Montenegro",
      "hr": "Crna Gora",
      "fa": "مونته‌نگرو",
      "tr": "Karadağ"
    }
  },
  {
    "name": "Montserrat",
    "native_name": "Montserrat",
    "alpha2_code": "MS",
    "numeric_code": 500,
    "capital": "Plymouth",
    "region": "Americas",
    "lat_long": [
      16.75,
      -62.2
    ],
    "languages": [
      {
        "iso_code": "en",
        "name": "English",
        "native_name": "English"
      }
    ],
    "translations": {
      "de": "Montserrat",
      "es": "Montserrat",
      "fr": "Montserrat",
      "ja": "モントセラト",
      "it": "Montserrat",
      "br": "Montserrat",
      "pt": "Monserrate",
      "nl": "Montserrat",
      "hr": "Montserrat",
      "fa": "مایوت",
      "tr": "Montserrat"
    }
  },
  {
    "name": "Morocco",
    "native_name": "المغرب",
    "alpha2_code": "MA",
    "numeric_code": 504,
    "capital": "Rabat",
    "region": "Africa",
    "lat_long": [
      32,
      -5
    ],
    "languages": [
      {
        "iso_code": "ar",
        "name": "Arabic",
        "native_name": "العربية"
      }
    ],
    "translations": {
      "de": "Marokko",
      "es": "Marruecos",
      "fr": "Maroc",
      "ja": "モロッコ",
      "it": "Marocco",
      "br": "Marrocos",
      "pt": "Marrocos",
      "nl": "Marokko",
      "hr": "Maroko",
      "fa": "مراکش",
      "tr": "Fas"
    }
  },
  {
    "name": "Mozambique",
    "native_name": "Moçambique",
    "alpha2_code": "MZ",
    "numeric_code": 508,
    "capital": "Maputo",
    "region": "Africa",
    "lat_long": [
      -18.25,
      35
    ],
    "languages": [
      {
        "iso_code": "pt",
        "name": "Portuguese",
        "native_name": "Português"
      }
    ],
    "translations": {
      "de": "Mosambik",
      "es": "Mozambique",
      "fr": "Mozambique",
      "ja": "モザンビーク",
      "it": "Mozambico",
      "br": "Moçambique",
      "pt": "Moçambique",
      "nl": "Mozambique",
      "hr": "Mozambik",
      "fa": "موزامبیک",
      "tr": "Mozambik"
    }
  },
  {
    "name": "Myanmar",
    "native_name": "Myanma",
    "alpha2_code": "MM",
    "numeric_code": 104,
    "capital": "Naypyidaw",
    "region": "Asia",
    "lat_long": [
      22,
      98
    ],
    "languages": [
      {
        "iso_code": "my",
        "name": "Burmese",
        "native_name": "ဗမာစာ"
      }
    ],
    "translations": {
      "de": "Myanmar",
      "es": "Myanmar",
      "fr": "Myanmar",
      "ja": "ミャンマー",
      "it": "Birmania",
      "br": "Myanmar",
      "pt": "Myanmar",
      "nl": "Myanmar",
      "hr": "Mijanmar",
      "fa": "میانمار",
      "tr": "Myanmar"
    }
  },
  {
    "name": "Namibia",
    "native_name": "Namibia",
    "alpha2_code": "NA",
    "numeric_code": 516,
    "capital": "Windhoek",
    "region": "Africa",
    "lat_long": [
      -22,
      17
    ],
    "languages": [
      {
        "iso_code": "en",
        "name": "English",
        "native_name": "English"
      },
      {
        "iso_code": "af",
        "name": "Afrikaans",
        "native_name": "Afrikaans"
      }
    ],
    "translations": {
      "de": "Namibia",
      "es": "Namibia",
      "fr": "Namibie",
      "ja": "ナミビア",
      "it": "Namibia",
      "br": "Namíbia",
      "pt": "Namíbia",
      "nl": "Namibië",
      "hr": "Namibija",
      "fa": "نامیبیا",
      "tr": "Namibia"
    }
  },
  {
    "name": "Nauru",
    "native_name": "Nauru",
    "alpha2_code": "NR",
    "numeric_code": 520,
    "capital": "Yaren",
    "region": "Oceania",
    "lat_long": [
      -0.53333333,
      166.91666666
    ],
    "languages": [
      {
        "iso_code": "en",
        "name": "English",
        "native_name": "English"
      },
      {
        "iso_code": "na",
        "name": "Nauruan",
        "native_name": "Dorerin Naoero"
      }
    ],
    "translations": {
      "de": "Nauru",
      "es": "Nauru",
      "fr": "Nauru",
      "ja": "ナウル",
      "it": "Nauru",
      "br": "Nauru",
      "pt": "Nauru",
      "nl": "Nauru",
      "hr": "Nauru",
      "fa": "نائورو",
      "tr": "Nauru"
    }
  },
  {
    "name": "Nepal",
    "native_name": "नेपाल",
    "alpha2_code": "NP",
    "numeric_code": 524,
    "capital": "Kathmandu",
    "region": "Asia",
    "lat_long": [
      28,
      84
    ],
    "languages": [
      {
        "iso_code": "ne",
        "name": "Nepali",
        "native_name": "नेपाली"
      }
    ],
    "translations": {
      "de": "Népal",
      "es": "Nepal",
      "fr": "Népal",
      "ja": "ネパール",
      "it": "Nepal",
      "br": "Nepal",
      "pt": "Nepal",
      "nl": "Nepal",
      "hr": "Nepal",
      "fa": "نپال",
      "tr": "Nepal"
    }
  },
  {
    "name": "Netherlands",
    "native_name": "Nederland",
    "alpha2_code": "NL",
    "numeric_code": 528,
    "capital": "Amsterdam",
    "region": "Europe",
    "lat_long": [
      52.5,
      5.75
    ],
    "languages": [
      {
        "iso_code": "nl",
        "name": "Dutch",
        "native_name": "Nederlands"
      }
    ],
    "translations": {
      "de": "Niederlande",
      "es": "Países Bajos",
      "fr": "Pays-Bas",
      "ja": "オランダ",
      "it": "Paesi Bassi",
      "br": "Holanda",
      "pt": "Países Baixos",
      "nl": "Nederland",
      "hr": "Nizozemska",
      "fa": "پادشاهی هلند",
      "tr": "Hollanda"
    }
  },
  {
    "name": "New Caledonia",
    "native_name": "Nouvelle-Calédonie",
    "alpha2_code": "NC",
    "numeric_code": 540,
    "capital": "Nouméa",
    "region": "Oceania",
    "lat_long": [
      -21.5,
      165.5
    ],
    "languages": [
      {
        "iso_code": "fr",
        "name": "French",
        "native_name": "français"
      }
    ],
    "translations": {
      "de": "Neukaledonien",
      "es": "Nueva Caledonia",
      "fr": "Nouvelle-Calédonie",
      "ja": "ニューカレドニア",
      "it": "Nuova Caledonia",
      "br": "Nova Caledônia",
      "pt": "Nova Caledónia",
      "nl": "Nieuw-Caledonië",
      "hr": "Nova Kaledonija",
      "fa": "کالدونیای جدید",
      "tr": "Yeni Kaledonya"
    }
  },
  {
    "name": "New Zealand",
    "native_name": "New Zealand",
    "alpha2_code": "NZ",
    "numeric_code": 554,
    "capital": "Wellington",
    "region": "Oceania",
    "lat_long": [
      -41,
      174
    ],
    "languages": [
      {
        "iso_code": "en",
        "name": "English",
        "native_name": "English"
      },
      {
        "iso_code": "mi",
        "name": "Māori",
        "native_name": "te reo Māori"
      }
    ],
    "translations": {
      "de": "Neuseeland",
      "es": "Nueva Zelanda",
      "fr": "Nouvelle-Zélande",
      "ja": "ニュージーランド",
      "it": "Nuova Zelanda",
      "br": "Nova Zelândia",
      "pt": "Nova Zelândia",
      "nl": "Nieuw-Zeeland",
      "hr": "Novi Zeland",
      "fa": "نیوزیلند",
      "tr": "Yeni Zelanda"
    }
  },
  {
    "name": "Nicaragua",
    "native_name": "Nicaragua",
    "alpha2_code": "NI",
    "numeric_code": 558,
    "capital": "Managua",
    "region": "Americas",
    "lat_long": [
      13,
      -85
    ],
    "languages": [
      {
        "iso_code": "es",
        "name": "Spanish",
        "native_name": "Español"
      }
    ],
    "translations": {
      "de": "Nicaragua",
      "es": "Nicaragua",
      "fr": "Nicaragua",
      "ja": "ニカラグア",
      "it": "Nicaragua",
      "br": "Nicarágua",
      "pt": "Nicarágua",
      "nl": "Nicaragua",
      "hr": "Nikaragva",
      "fa": "نیکاراگوئه",
      "tr": "Nikaragua"
    }
  },
  {
    "name": "Niger",
    "native_name": "Niger",
    "alpha2_code": "NE",
    "numeric_code": 562,
    "capital": "Niamey",
    "region": "Africa",
    "lat_long": [
      16,
      8
    ],
    "languages": [
      {
        "iso_code": "fr",
        "name": "French",
        "native_name": "français"
      }
    ],
    "translations": {
      "de": "Niger",
      "es": "Níger",
      "fr": "Niger",
      "ja": "ニジェール",
      "it": "Niger",
      "br": "Níger",
      "pt": "Níger",
      "nl": "Niger",
      "hr": "Niger",
      "fa": "نیجر",
      "tr": "Nijer"
    }
  },
  {
    "name": "Nigeria",
    "native_name": "Nigeria",
    "alpha2_code": "NG",
    "numeric_code": 566,
    "capital": "Abuja",
    "region": "Africa",
    "lat_long": [
      10,
      8
    ],
    "languages": [
      {
        "iso_code": "en",
        "name": "English",
        "native_name": "English"
      }
    ],
    "translations": {
      "de": "Nigeria",
      "es": "Nigeria",
      "fr": "Nigéria",
      "ja": "ナイジェリア",
      "it": "Nigeria",
      "br": "Nigéria",
      "pt": "Nigéria",
      "nl": "Nigeria",
      "hr": "Nigerija",
      "fa": "نیجریه",
      "tr": "Nijerya"
    }
  },
  {
    "name": "Niue",
    "native_name": "Niuē",
    "alpha2_code": "NU",
    "numeric_code": 570,
    "capital": "Alofi",
    "region": "Oceania",
    "lat_long": [
      -19.03333333,
      -169.86666666
    ],
    "languages": [
      {
        "iso_code": "en",
        "name": "English",
        "native_name": "English"
      }
    ],
    "translations": {
      "de": "Niue",
      "es": "Niue",
      "fr": "Niue",
      "ja": "ニウエ",
      "it": "Niue",
      "br": "Niue",
      "pt": "Niue",
      "nl": "Niue",
      "hr": "Niue",
      "fa": "نیووی",
      "tr": "Norveç"
    }
  },
  {
    "name": "Norfolk Island",
    "native_name": "Norfolk Island",
    "alpha2_code": "NF",
    "numeric_code": 574,
    "capital": "Kingston",
    "region": "Oceania",
    "lat_long": [
      -29.03333333,
      167.95
    ],
    "languages": [
      {
        "iso_code": "en",
        "name": "English",
        "native_name": "English"
      }
    ],
    "translations": {
      "de": "Norfolkinsel",
      "es": "Isla de Norfolk",
      "fr": "Île de Norfolk",
      "ja": "ノーフォーク島",
      "it": "Isola Norfolk",
      "br": "Ilha Norfolk",
      "pt": "Ilha Norfolk",
      "nl": "Norfolkeiland",
      "hr": "Otok Norfolk",
      "fa": "جزیره نورفک",
      "tr": "Norfolk Adası"
    }
  },
  {
    "name": "South Korea",
    "native_name": "북한",
    "alpha2_code": "KP",
    "numeric_code": 408,
    "capital": "Pyongyang",
    "region": "Asia",
    "lat_long": [
      40,
      127
    ],
    "languages": [
      {
        "iso_code": "ko",
        "name": "Korean",
        "native_name": "한국어"
      }
    ],
    "translations": {
      "de": "Nordkorea",
      "es": "Corea del Norte",
      "fr": "Corée du Nord",
      "ja": "朝鮮民主主義人民共和国",
      "it": "Corea del Nord",
      "br": "Coreia do Norte",
      "pt": "Coreia do Norte",
      "nl": "Noord-Korea",
      "hr": "Sjeverna Koreja",
      "fa": "کره جنوبی",
      "tr": "Kuzey Kore"
    }
  },
  {
    "name": "Northern Mariana Islands",
    "native_name": "Northern Mariana Islands",
    "alpha2_code": "MP",
    "numeric_code": 580,
    "capital": "Saipan",
    "region": "Oceania",
    "lat_long": [
      15.2,
      145.75
    ],
    "languages": [
      {
        "iso_code": "en",
        "name": "English",
        "native_name": "English"
      },
      {
        "iso_code": "ch",
        "name": "Chamorro",
        "native_name": "Chamoru"
      }
    ],
    "translations": {
      "de": "Nördliche Marianen",
      "es": "Islas Marianas del Norte",
      "fr": "Îles Mariannes du Nord",
      "ja": "北マリアナ諸島",
      "it": "Isole Marianne Settentrionali",
      "br": "Ilhas Marianas",
      "pt": "Ilhas Marianas",
      "nl": "Noordelijke Marianeneilanden",
      "hr": "Sjevernomarijanski otoci",
      "fa": "جزایر ماریانای شمالی",
      "tr": "Kuzey Mariana Adaları"
    }
  },
  {
    "name": "Norway",
    "native_name": "Norge",
    "alpha2_code": "NO",
    "numeric_code": 578,
    "capital": "Oslo",
    "region": "Europe",
    "lat_long": [
      62,
      10
    ],
    "languages": [
      {
        "iso_code": "no",
        "name": "Norwegian",
        "native_name": "Norsk"
      },
      {
        "iso_code": "nb",
        "name": "Norwegian Bokmål",
        "native_name": "Norsk bokmål"
      },
      {
        "iso_code": "nn",
        "name": "Norwegian Nynorsk",
        "native_name": "Norsk nynorsk"
      }
    ],
    "translations": {
      "de": "Norwegen",
      "es": "Noruega",
      "fr": "Norvège",
      "ja": "ノルウェー",
      "it": "Norvegia",
      "br": "Noruega",
      "pt": "Noruega",
      "nl": "Noorwegen",
      "hr": "Norveška",
      "fa": "نروژ",
      "tr": "Norveç"
    }
  },
  {
    "name": "Oman",
    "native_name": "عمان",
    "alpha2_code": "OM",
    "numeric_code": 512,
    "capital": "Muscat",
    "region": "Asia",
    "lat_long": [
      21,
      57
    ],
    "languages": [
      {
        "iso_code": "ar",
        "name": "Arabic",
        "native_name": "العربية"
      }
    ],
    "translations": {
      "de": "Oman",
      "es": "Omán",
      "fr": "Oman",
      "ja": "オマーン",
      "it": "oman",
      "br": "Omã",
      "pt": "Omã",
      "nl": "Oman",
      "hr": "Oman",
      "fa": "عمان",
      "tr": "Umman"
    }
  },
  {
    "name": "Pakistan",
    "native_name": "Pakistan",
    "alpha2_code": "PK",
    "numeric_code": 586,
    "capital": "Islamabad",
    "region": "Asia",
    "lat_long": [
      30,
      70
    ],
    "languages": [
      {
        "iso_code": "en",
        "name": "English",
        "native_name": "English"
      },
      {
        "iso_code": "ur",
        "name": "Urdu",
        "native_name": "اردو"
      }
    ],
    "translations": {
      "de": "Pakistan",
      "es": "Pakistán",
      "fr": "Pakistan",
      "ja": "パキスタン",
      "it": "Pakistan",
      "br": "Paquistão",
      "pt": "Paquistão",
      "nl": "Pakistan",
      "hr": "Pakistan",
      "fa": "پاکستان",
      "tr": "Pakistan"
    }
  },
  {
    "name": "Palau",
    "native_name": "Palau",
    "alpha2_code": "PW",
    "numeric_code": 585,
    "capital": "Ngerulmud",
    "region": "Oceania",
    "lat_long": [
      7.5,
      134.5
    ],
    "languages": [
      {
        "iso_code": "en",
        "name": "English",
        "native_name": "English"
      }
    ],
    "translations": {
      "de": "Palau",
      "es": "Palau",
      "fr": "Palaos",
      "ja": "パラオ",
      "it": "Palau",
      "br": "Palau",
      "pt": "Palau",
      "nl": "Palau",
      "hr": "Palau",
      "fa": "پالائو",
      "tr": "Palau"
    }
  },
  {
    "name": "Palestine, State of",
    "native_name": "فلسطين",
    "alpha2_code": "PS",
    "numeric_code": 275,
    "capital": "Ramallah",
    "region": "Asia",
    "lat_long": [
      31.9,
      35.2
    ],
    "languages": [
      {
        "iso_code": "ar",
        "name": "Arabic",
        "native_name": "العربية"
      }
    ],
    "translations": {
      "de": "Palästina",
      "es": "Palestina",
      "fr": "Palestine",
      "ja": "パレスチナ",
      "it": "Palestina",
      "br": "Palestina",
      "pt": "Palestina",
      "nl": "Palestijnse gebieden",
      "hr": "Palestina",
      "fa": "فلسطین",
      "tr": "Filistin Devlet "
    }
  },
  {
    "name": "Panama",
    "native_name": "Panamá",
    "alpha2_code": "PA",
    "numeric_code": 591,
    "capital": "Panama City",
    "region": "Americas",
    "lat_long": [
      9,
      -80
    ],
    "languages": [
      {
        "iso_code": "es",
        "name": "Spanish",
        "native_name": "Español"
      }
    ],
    "translations": {
      "de": "Panama",
      "es": "Panamá",
      "fr": "Panama",
      "ja": "パナマ",
      "it": "Panama",
      "br": "Panamá",
      "pt": "Panamá",
      "nl": "Panama",
      "hr": "Panama",
      "fa": "پاناما",
      "tr": "Panama"
    }
  },
  {
    "name": "Papua New Guinea",
    "native_name": "Papua Niugini",
    "alpha2_code": "PG",
    "numeric_code": 598,
    "capital": "Port Moresby",
    "region": "Oceania",
    "lat_long": [
      -6,
      147
    ],
    "languages": [
      {
        "iso_code": "en",
        "name": "English",
        "native_name": "English"
      }
    ],
    "translations": {
      "de": "Papua-Neuguinea",
      "es": "Papúa Nueva Guinea",
      "fr": "Papouasie-Nouvelle-Guinée",
      "ja": "パプアニューギニア",
      "it": "Papua Nuova Guinea",
      "br": "Papua Nova Guiné",
      "pt": "Papua Nova Guiné",
      "nl": "Papoea-Nieuw-Guinea",
      "hr": "Papua Nova Gvineja",
      "fa": "پاپوآ گینه نو",
      "tr": "Papua Yeni Gine"
    }
  },
  {
    "name": "Paraguay",
    "native_name": "Paraguay",
    "alpha2_code": "PY",
    "numeric_code": 600,
    "capital": "Asunción",
    "region": "Americas",
    "lat_long": [
      -23,
      -58
    ],
    "languages": [
      {
        "iso_code": "es",
        "name": "Spanish",
        "native_name": "Español"
      },
      {
        "iso_code": "gn",
        "name": "Guaraní",
        "native_name": "Avañe'ẽ"
      }
    ],
    "translations": {
      "de": "Paraguay",
      "es": "Paraguay",
      "fr": "Paraguay",
      "ja": "パラグアイ",
      "it": "Paraguay",
      "br": "Paraguai",
      "pt": "Paraguai",
      "nl": "Paraguay",
      "hr": "Paragvaj",
      "fa": "پاراگوئه",
      "tr": "Paraguay"
    }
  },
  {
    "name": "Peru",
    "native_name": "Perú",
    "alpha2_code": "PE",
    "numeric_code": 604,
    "capital": "Lima",
    "region": "Americas",
    "lat_long": [
      -10,
      -76
    ],
    "languages": [
      {
        "iso_code": "es",
        "name": "Spanish",
        "native_name": "Español"
      }
    ],
    "translations": {
      "de": "Peru",
      "es": "Perú",
      "fr": "Pérou",
      "ja": "ペルー",
      "it": "Perù",
      "br": "Peru",
      "pt": "Peru",
      "nl": "Peru",
      "hr": "Peru",
      "fa": "پرو",
      "tr": "Peru"
    }
  },
  {
    "name": "Philippines",
    "native_name": "Pilipinas",
    "alpha2_code": "PH",
    "numeric_code": 608,
    "capital": "Manila",
    "region": "Asia",
    "lat_long": [
      13,
      122
    ],
    "languages": [
      {
        "iso_code": "en",
        "name": "English",
        "native_name": "English"
      }
    ],
    "translations": {
      "de": "Philippinen",
      "es": "Filipinas",
      "fr": "Philippines",
      "ja": "フィリピン",
      "it": "Filippine",
      "br": "Filipinas",
      "pt": "Filipinas",
      "nl": "Filipijnen",
      "hr": "Filipini",
      "fa": "جزایر الندفیلیپین",
      "tr": "Filipinler"
    }
  },
  {
    "name": "Pitcairn",
    "native_name": "Pitcairn Islands",
    "alpha2_code": "PN",
    "numeric_code": 612,
    "capital": "Adamstown",
    "region": "Oceania",
    "lat_long": [
      -25.06666666,
      -130.1
    ],
    "languages": [
      {
        "iso_code": "en",
        "name": "English",
        "native_name": "English"
      }
    ],
    "translations": {
      "de": "Pitcairn",
      "es": "Islas Pitcairn",
      "fr": "Îles Pitcairn",
      "ja": "ピトケアン",
      "it": "Isole Pitcairn",
      "br": "Ilhas Pitcairn",
      "pt": "Ilhas Picárnia",
      "nl": "Pitcairneilanden",
      "hr": "Pitcairnovo otočje",
      "fa": "پیتکرن",
      "tr": "Pitcairn"
    }
  },
  {
    "name": "Poland",
    "native_name": "Polska",
    "alpha2_code": "PL",
    "numeric_code": 616,
    "capital": "Warsaw",
    "region": "Europe",
    "lat_long": [
      52,
      20
    ],
    "languages": [
      {
        "iso_code": "pl",
        "name": "Polish",
        "native_name": "język polski"
      }
    ],
    "translations": {
      "de": "Polen",
      "es": "Polonia",
      "fr": "Pologne",
      "ja": "ポーランド",
      "it": "Polonia",
      "br": "Polônia",
      "pt": "Polónia",
      "nl": "Polen",
      "hr": "Poljska",
      "fa": "لهستان",
      "tr": "Polonya"
    }
  },
  {
    "name": "Portugal",
    "native_name": "Portugal",
    "alpha2_code": "PT",
    "numeric_code": 620,
    "capital": "Lisbon",
    "region": "Europe",
    "lat_long": [
      39.5,
      -8
    ],
    "languages": [
      {
        "iso_code": "pt",
        "name": "Portuguese",
        "native_name": "Português"
      }
    ],
    "translations": {
      "de": "Portugal",
      "es": "Portugal",
      "fr": "Portugal",
      "ja": "ポルトガル",
      "it": "Portogallo",
      "br": "Portugal",
      "pt": "Portugal",
      "nl": "Portugal",
      "hr": "Portugal",
      "fa": "پرتغال",
      "tr": "Portekiz"
    }
  },
  {
    "name": "Puerto Rico",
    "native_name": "Puerto Rico",
    "alpha2_code": "PR",
    "numeric_code": 630,
    "capital": "San Juan",
    "region": "Americas",
    "lat_long": [
      18.25,
      -66.5
    ],
    "languages": [
      {
        "iso_code": "es",
        "name": "Spanish",
        "native_name": "Español"
      },
      {
        "iso_code": "en",
        "name": "English",
        "native_name": "English"
      }
    ],
    "translations": {
      "de": "Puerto Rico",
      "es": "Puerto Rico",
      "fr": "Porto Rico",
      "ja": "プエルトリコ",
      "it": "Porto Rico",
      "br": "Porto Rico",
      "pt": "Porto Rico",
      "nl": "Puerto Rico",
      "hr": "Portoriko",
      "fa": "پورتو ریکو",
      "tr": "Porto Riko"
    }
  },
  {
    "name": "Qatar",
    "native_name": "قطر",
    "alpha2_code": "QA",
    "numeric_code": 634,
    "capital": "Doha",
    "region": "Asia",
    "lat_long": [
      25.5,
      51.25
    ],
    "languages": [
      {
        "iso_code": "ar",
        "name": "Arabic",
        "native_name": "العربية"
      }
    ],
    "translations": {
      "de": "Katar",
      "es": "Catar",
      "fr": "Qatar",
      "ja": "カタール",
      "it": "Qatar",
      "br": "Catar",
      "pt": "Catar",
      "nl": "Qatar",
      "hr": "Katar",
      "fa": "قطر",
      "tr": "Katar"
    }
  },
  {
    "name": "Republic of Kosovo",
    "native_name": "Republika e Kosovës",
    "alpha2_code": "XK",
    "numeric_code": null,
    "capital": "Pristina",
    "region": "Europe",
    "lat_long": [
      42.666667,
      21.166667
    ],
    "languages": [
      {
        "iso_code": "sq",
        "name": "Albanian",
        "native_name": "Shqip"
      },
      {
        "iso_code": "sr",
        "name": "Serbian",
        "native_name": "српски језик"
      }
    ],
    "translations": {
      "es": "Kosovo",
      "br": "Kosovo",
      "pt": "Kosovo",
      "hr": "Kosovo",
      "fa": "کوزوو",
      "tr": "Kosova Cumhuriyeti "
    }
  },
  {
    "name": "Réunion",
    "native_name": "La Réunion",
    "alpha2_code": "RE",
    "numeric_code": 638,
    "capital": "Saint-Denis",
    "region": "Africa",
    "lat_long": [
      -21.15,
      55.5
    ],
    "languages": [
      {
        "iso_code": "fr",
        "name": "French",
        "native_name": "français"
      }
    ],
    "translations": {
      "de": "Réunion",
      "es": "Reunión",
      "fr": "Réunion",
      "ja": "レユニオン",
      "it": "Riunione",
      "br": "Reunião",
      "pt": "Reunião",
      "nl": "Réunion",
      "hr": "Réunion",
      "fa": "رئونیون",
      "tr": "Reunion"
    }
  },
  {
    "name": "Romania",
    "native_name": "România",
    "alpha2_code": "RO",
    "numeric_code": 642,
    "capital": "Bucharest",
    "region": "Europe",
    "lat_long": [
      46,
      25
    ],
    "languages": [
      {
        "iso_code": "ro",
        "name": "Romanian",
        "native_name": "Română"
      }
    ],
    "translations": {
      "de": "Rumänien",
      "es": "Rumania",
      "fr": "Roumanie",
      "ja": "ルーマニア",
      "it": "Romania",
      "br": "Romênia",
      "pt": "Roménia",
      "nl": "Roemenië",
      "hr": "Rumunjska",
      "fa": "رومانی",
      "tr": "Romanya"
    }
  },
  {
    "name": "Russian Federation",
    "native_name": "Россия",
    "alpha2_code": "RU",
    "numeric_code": 643,
    "capital": "Moscow",
    "region": "Europe",
    "lat_long": [
      60,
      100
    ],
    "languages": [
      {
        "iso_code": "ru",
        "name": "Russian",
        "native_name": "Русский"
      }
    ],
    "translations": {
      "de": "Russland",
      "es": "Rusia",
      "fr": "Russie",
      "ja": "ロシア連邦",
      "it": "Russia",
      "br": "Rússia",
      "pt": "Rússia",
      "nl": "Rusland",
      "hr": "Rusija",
      "fa": "روسیه",
      "tr": "Rusya Federasyonu"
    }
  },
  {
    "name": "Rwanda",
    "native_name": "Rwanda",
    "alpha2_code": "RW",
    "numeric_code": 646,
    "capital": "Kigali",
    "region": "Africa",
    "lat_long": [
      -2,
      30
    ],
    "languages": [
      {
        "iso_code": "rw",
        "name": "Kinyarwanda",
        "native_name": "Ikinyarwanda"
      },
      {
        "iso_code": "en",
        "name": "English",
        "native_name": "English"
      },
      {
        "iso_code": "fr",
        "name": "French",
        "native_name": "français"
      }
    ],
    "translations": {
      "de": "Ruanda",
      "es": "Ruanda",
      "fr": "Rwanda",
      "ja": "ルワンダ",
      "it": "Ruanda",
      "br": "Ruanda",
      "pt": "Ruanda",
      "nl": "Rwanda",
      "hr": "Ruanda",
      "fa": "رواندا",
      "tr": "Ruanda"
    }
  },
  {
    "name": "Saint Barthélemy",
    "native_name": "Saint-Barthélemy",
    "alpha2_code": "BL",
    "numeric_code": 652,
    "capital": "Gustavia",
    "region": "Americas",
    "lat_long": [
      18.5,
      -63.41666666
    ],
    "languages": [
      {
        "iso_code": "fr",
        "name": "French",
        "native_name": "français"
      }
    ],
    "translations": {
      "de": "Saint-Barthélemy",
      "es": "San Bartolomé",
      "fr": "Saint-Barthélemy",
      "ja": "サン・バルテルミー",
      "it": "Antille Francesi",
      "br": "São Bartolomeu",
      "pt": "São Bartolomeu",
      "nl": "Saint Barthélemy",
      "hr": "Saint Barthélemy",
      "fa": "سن-بارتلمی",
      "tr": "Saint Barthélemy"
    }
  },
  {
    "name": "Saint Helena, Ascension and Tristan da Cunha",
    "native_name": "Saint Helena",
    "alpha2_code": "SH",
    "numeric_code": 654,
    "capital": "Jamestown",
    "region": "Africa",
    "lat_long": [
      -15.95,
      -5.7
    ],
    "languages": [
      {
        "iso_code": "en",
        "name": "English",
        "native_name": "English"
      }
    ],
    "translations": {
      "de": "Sankt Helena",
      "es": "Santa Helena",
      "fr": "Sainte-Hélène",
      "ja": "セントヘレナ・アセンションおよびトリスタンダクーニャ",
      "it": "Sant'Elena",
      "br": "Santa Helena",
      "pt": "Santa Helena",
      "nl": "Sint-Helena",
      "hr": "Sveta Helena",
      "fa": "سنت هلنا، اسنشن و تریستان دا کونا",
      "tr": "Saint Helena, Yükseliş ve Tristan da Cunha"
    }
  },
  {
    "name": "Saint Kitts and Nevis",
    "native_name": "Saint Kitts and Nevis",
    "alpha2_code": "KN",
    "numeric_code": 659,
    "capital": "Basseterre",
    "region": "Americas",
    "lat_long": [
      17.33333333,
      -62.75
    ],
    "languages": [
      {
        "iso_code": "en",
        "name": "English",
        "native_name": "English"
      }
    ],
    "translations": {
      "de": "St. Kitts und Nevis",
      "es": "San Cristóbal y Nieves",
      "fr": "Saint-Christophe-et-Niévès",
      "ja": "セントクリストファー・ネイビス",
      "it": "Saint Kitts e Nevis",
      "br": "São Cristóvão e Neves",
      "pt": "São Cristóvão e Neves",
      "nl": "Saint Kitts en Nevis",
      "hr": "Sveti Kristof i Nevis",
      "fa": "سنت کیتس و نویس",
      "tr": "Saint Kitts ve Nevis"
    }
  },
  {
    "name": "Saint Lucia",
    "native_name": "Saint Lucia",
    "alpha2_code": "LC",
    "numeric_code": 662,
    "capital": "Castries",
    "region": "Americas",
    "lat_long": [
      13.88333333,
      -60.96666666
    ],
    "languages": [
      {
        "iso_code": "en",
        "name": "English",
        "native_name": "English"
      }
    ],
    "translations": {
      "de": "Saint Lucia",
      "es": "Santa Lucía",
      "fr": "Saint-Lucie",
      "ja": "セントルシア",
      "it": "Santa Lucia",
      "br": "Santa Lúcia",
      "pt": "Santa Lúcia",
      "nl": "Saint Lucia",
      "hr": "Sveta Lucija",
      "fa": "سنت لوسیا",
      "tr": "Saint Lucia"
    }
  },
  {
    "name": "Saint Martin",
    "native_name": "Saint-Martin",
    "alpha2_code": "MF",
    "numeric_code": 663,
    "capital": "Marigot",
    "region": "Americas",
    "lat_long": [
      18.08333333,
      -63.95
    ],
    "languages": [
      {
        "iso_code": "en",
        "name": "English",
        "native_name": "English"
      },
      {
        "iso_code": "fr",
        "name": "French",
        "native_name": "français"
      },
      {
        "iso_code": "nl",
        "name": "Dutch",
        "native_name": "Nederlands"
      }
    ],
    "translations": {
      "de": "Saint Martin",
      "es": "Saint Martin",
      "fr": "Saint-Martin",
      "ja": "サン・マルタン（フランス領）",
      "it": "Saint Martin",
      "br": "Saint Martin",
      "pt": "Ilha São Martinho",
      "nl": "Saint-Martin",
      "hr": "Sveti Martin",
      "fa": "سینت مارتن",
      "tr": "Saint Martin "
    }
  },
  {
    "name": "Saint Pierre and Miquelon",
    "native_name": "Saint-Pierre-et-Miquelon",
    "alpha2_code": "PM",
    "numeric_code": 666,
    "capital": "Saint-Pierre",
    "region": "Americas",
    "lat_long": [
      46.83333333,
      -56.33333333
    ],
    "languages": [
      {
        "iso_code": "fr",
        "name": "French",
        "native_name": "français"
      }
    ],
    "translations": {
      "de": "Saint-Pierre und Miquelon",
      "es": "San Pedro y Miquelón",
      "fr": "Saint-Pierre-et-Miquelon",
      "ja": "サンピエール島・ミクロン島",
      "it": "Saint-Pierre e Miquelon",
      "br": "Saint-Pierre e Miquelon",
      "pt": "São Pedro e Miquelon",
      "nl": "Saint Pierre en Miquelon",
      "hr": "Sveti Petar i Mikelon",
      "fa": "سن پیر و میکلن",
      "tr": "Saint Pierre ve Miquelon"
    }
  },
  {
    "name": "Saint Vincent and the Grenadines",
    "native_name": "Saint Vincent and the Grenadines",
    "alpha2_code": "VC",
    "numeric_code": 670,
    "capital": "Kingstown",
    "region": "Americas",
    "lat_long": [
      13.25,
      -61.2
    ],
    "languages": [
      {
        "iso_code": "en",
        "name": "English",
        "native_name": "English"
      }
    ],
    "translations": {
      "de": "Saint Vincent und die Grenadinen",
      "es": "San Vicente y Granadinas",
      "fr": "Saint-Vincent-et-les-Grenadines",
      "ja": "セントビンセントおよびグレナディーン諸島",
      "it": "Saint Vincent e Grenadine",
      "br": "São Vicente e Granadinas",
      "pt": "São Vicente e Granadinas",
      "nl": "Saint Vincent en de Grenadines",
      "hr": "Sveti Vincent i Grenadini",
      "fa": "سنت وینسنت و گرنادین‌ها",
      "tr": "Saint Vincent ve Grenadines"
    }
  },
  {
    "name": "Samoa",
    "native_name": "Samoa",
    "alpha2_code": "WS",
    "numeric_code": 882,
    "capital": "Apia",
    "region": "Oceania",
    "lat_long": [
      -13.58333333,
      -172.33333333
    ],
    "languages": [
      {
        "iso_code": "sm",
        "name": "Samoan",
        "native_name": "gagana fa'a Samoa"
      },
      {
        "iso_code": "en",
        "name": "English",
        "native_name": "English"
      }
    ],
    "translations": {
      "de": "Samoa",
      "es": "Samoa",
      "fr": "Samoa",
      "ja": "サモア",
      "it": "Samoa",
      "br": "Samoa",
      "pt": "Samoa",
      "nl": "Samoa",
      "hr": "Samoa",
      "fa": "ساموآ",
      "tr": "Samoa"
    }
  },
  {
    "name": "San Marino",
    "native_name": "San Marino",
    "alpha2_code": "SM",
    "numeric_code": 674,
    "capital": "City of San Marino",
    "region": "Europe",
    "lat_long": [
      43.76666666,
      12.41666666
    ],
    "languages": [
      {
        "iso_code": "it",
        "name": "Italian",
        "native_name": "Italiano"
      }
    ],
    "translations": {
      "de": "San Marino",
      "es": "San Marino",
      "fr": "Saint-Marin",
      "ja": "サンマリノ",
      "it": "San Marino",
      "br": "San Marino",
      "pt": "São Marinho",
      "nl": "San Marino",
      "hr": "San Marino",
      "fa": "سان مارینو",
      "tr": "San Marino"
    }
  },
  {
    "name": "Sao Tome and Principe",
    "native_name": "São Tomé e Príncipe",
    "alpha2_code": "ST",
    "numeric_code": 678,
    "capital": "São Tomé",
    "region": "Africa",
    "lat_long": [
      1,
      7
    ],
    "languages": [
      {
        "iso_code": "pt",
        "name": "Portuguese",
        "native_name": "Português"
      }
    ],
    "translations": {
      "de": "São Tomé und Príncipe",
      "es": "Santo Tomé y Príncipe",
      "fr": "Sao Tomé-et-Principe",
      "ja": "サントメ・プリンシペ",
      "it": "São Tomé e Príncipe",
      "br": "São Tomé e Príncipe",
      "pt": "São Tomé e Príncipe",
      "nl": "Sao Tomé en Principe",
      "hr": "Sveti Toma i Princip",
      "fa": "کواترو دو فرویرو",
      "tr": "Sao Tome ve Principe"
    }
  },
  {
    "name": "Saudi Arabia",
    "native_name": "العربية السعودية",
    "alpha2_code": "SA",
    "numeric_code": 682,
    "capital": "Riyadh",
    "region": "Asia",
    "lat_long": [
      25,
      45
    ],
    "languages": [
      {
        "iso_code": "ar",
        "name": "Arabic",
        "native_name": "العربية"
      }
    ],
    "translations": {
      "de": "Saudi-Arabien",
      "es": "Arabia Saudí",
      "fr": "Arabie Saoudite",
      "ja": "サウジアラビア",
      "it": "Arabia Saudita",
      "br": "Arábia Saudita",
      "pt": "Arábia Saudita",
      "nl": "Saoedi-Arabië",
      "hr": "Saudijska Arabija",
      "fa": "عربستان سعودی",
      "tr": "Suudi Arabistan"
    }
  },
  {
    "name": "Senegal",
    "native_name": "Sénégal",
    "alpha2_code": "SN",
    "numeric_code": 686,
    "capital": "Dakar",
    "region": "Africa",
    "lat_long": [
      14,
      -14
    ],
    "languages": [
      {
        "iso_code": "fr",
        "name": "French",
        "native_name": "français"
      }
    ],
    "translations": {
      "de": "Senegal",
      "es": "Senegal",
      "fr": "Sénégal",
      "ja": "セネガル",
      "it": "Senegal",
      "br": "Senegal",
      "pt": "Senegal",
      "nl": "Senegal",
      "hr": "Senegal",
      "fa": "سنگال",
      "tr": "Senegal"
    }
  },
  {
    "name": "Serbia",
    "native_name": "Србија",
    "alpha2_code": "RS",
    "numeric_code": 688,
    "capital": "Belgrade",
    "region": "Europe",
    "lat_long": [
      44,
      21
    ],
    "languages": [
      {
        "iso_code": "sr",
        "name": "Serbian",
        "native_name": "српски језик"
      }
    ],
    "translations": {
      "de": "Serbien",
      "es": "Serbia",
      "fr": "Serbie",
      "ja": "セルビア",
      "it": "Serbia",
      "br": "Sérvia",
      "pt": "Sérvia",
      "nl": "Servië",
      "hr": "Srbija",
      "fa": "صربستان",
      "tr": "Sırbistan"
    }
  },
  {
    "name": "Seychelles",
    "native_name": "Seychelles",
    "alpha2_code": "SC",
    "numeric_code": 690,
    "capital": "Victoria",
    "region": "Africa",
    "lat_long": [
      -4.58333333,
      55.66666666
    ],
    "languages": [
      {
        "iso_code": "fr",
        "name": "French",
        "native_name": "français"
      },
      {
        "iso_code": "en",
        "name": "English",
        "native_name": "English"
      }
    ],
    "translations": {
      "de": "Seychellen",
      "es": "Seychelles",
      "fr": "Seychelles",
      "ja": "セーシェル",
      "it": "Seychelles",
      "br": "Seicheles",
      "pt": "Seicheles",
      "nl": "Seychellen",
      "hr": "Sejšeli",
      "fa": "سیشل",
      "tr": "Seychelles"
    }
  },
  {
    "name": "Sierra Leone",
    "native_name": "Sierra Leone",
    "alpha2_code": "SL",
    "numeric_code": 694,
    "capital": "Freetown",
    "region": "Africa",
    "lat_long": [
      8.5,
      -11.5
    ],
    "languages": [
      {
        "iso_code": "en",
        "name": "English",
        "native_name": "English"
      }
    ],
    "translations": {
      "de": "Sierra Leone",
      "es": "Sierra Leone",
      "fr": "Sierra Leone",
      "ja": "シエラレオネ",
      "it": "Sierra Leone",
      "br": "Serra Leoa",
      "pt": "Serra Leoa",
      "nl": "Sierra Leone",
      "hr": "Sijera Leone",
      "fa": "سیرالئون",
      "tr": "Sierra Leone"
    }
  },
  {
    "name": "Singapore",
    "native_name": "Singapore",
    "alpha2_code": "SG",
    "numeric_code": 702,
    "capital": "Singapore",
    "region": "Asia",
    "lat_long": [
      1.36666666,
      103.8
    ],
    "languages": [
      {
        "iso_code": "en",
        "name": "English",
        "native_name": "English"
      },
      {
        "iso_code": "ms",
        "name": "Malay",
        "native_name": "bahasa Melayu"
      },
      {
        "iso_code": "ta",
        "name": "Tamil",
        "native_name": "தமிழ்"
      },
      {
        "iso_code": "zh",
        "name": "Chinese",
        "native_name": "中文 (Zhōngwén)"
      }
    ],
    "translations": {
      "de": "Singapur",
      "es": "Singapur",
      "fr": "Singapour",
      "ja": "シンガポール",
      "it": "Singapore",
      "br": "Singapura",
      "pt": "Singapura",
      "nl": "Singapore",
      "hr": "Singapur",
      "fa": "سنگاپور",
      "tr": "Singapur"
    }
  },
  {
    "name": "Sint Maarten",
    "native_name": "Sint Maarten",
    "alpha2_code": "SX",
    "numeric_code": 534,
    "capital": "Philipsburg",
    "region": "Americas",
    "lat_long": [
      18.033333,
      -63.05
    ],
    "languages": [
      {
        "iso_code": "nl",
        "name": "Dutch",
        "native_name": "Nederlands"
      },
      {
        "iso_code": "en",
        "name": "English",
        "native_name": "English"
      }
    ],
    "translations": {
      "de": "Sint Maarten (niederl. Teil)",
      "fr": "Saint Martin (partie néerlandaise)",
      "it": "Saint Martin (parte olandese)",
      "br": "Sint Maarten",
      "pt": "São Martinho",
      "nl": "Sint Maarten",
      "fa": "سینت مارتن",
      "tr": "Sint Maarten "
    }
  },
  {
    "name": "Slovakia",
    "native_name": "Slovensko",
    "alpha2_code": "SK",
    "numeric_code": 703,
    "capital": "Bratislava",
    "region": "Europe",
    "lat_long": [
      48.66666666,
      19.5
    ],
    "languages": [
      {
        "iso_code": "sk",
        "name": "Slovak",
        "native_name": "slovenčina"
      }
    ],
    "translations": {
      "de": "Slowakei",
      "es": "República Eslovaca",
      "fr": "Slovaquie",
      "ja": "スロバキア",
      "it": "Slovacchia",
      "br": "Eslováquia",
      "pt": "Eslováquia",
      "nl": "Slowakije",
      "hr": "Slovačka",
      "fa": "اسلواکی",
      "tr": "Slovakya"
    }
  },
  {
    "name": "Slovenia",
    "native_name": "Slovenija",
    "alpha2_code": "SI",
    "numeric_code": 705,
    "capital": "Ljubljana",
    "region": "Europe",
    "lat_long": [
      46.11666666,
      14.81666666
    ],
    "languages": [
      {
        "iso_code": "sl",
        "name": "Slovene",
        "native_name": "slovenski jezik"
      }
    ],
    "translations": {
      "de": "Slowenien",
      "es": "Eslovenia",
      "fr": "Slovénie",
      "ja": "スロベニア",
      "it": "Slovenia",
      "br": "Eslovênia",
      "pt": "Eslovénia",
      "nl": "Slovenië",
      "hr": "Slovenija",
      "fa": "اسلوونی",
      "tr": "Slovenya"
    }
  },
  {
    "name": "Solomon Islands",
    "native_name": "Solomon Islands",
    "alpha2_code": "SB",
    "numeric_code": 90,
    "capital": "Honiara",
    "region": "Oceania",
    "lat_long": [
      -8,
      159
    ],
    "languages": [
      {
        "iso_code": "en",
        "name": "English",
        "native_name": "English"
      }
    ],
    "translations": {
      "de": "Salomonen",
      "es": "Islas Salomón",
      "fr": "Îles Salomon",
      "ja": "ソロモン諸島",
      "it": "Isole Salomone",
      "br": "Ilhas Salomão",
      "pt": "Ilhas Salomão",
      "nl": "Salomonseilanden",
      "hr": "Solomonski Otoci",
      "fa": "جزایر سلیمان",
      "tr": "Solomon Adaları"
    }
  },
  {
    "name": "Somalia",
    "native_name": "Soomaaliya",
    "alpha2_code": "SO",
    "numeric_code": 706,
    "capital": "Mogadishu",
    "region": "Africa",
    "lat_long": [
      10,
      49
    ],
    "languages": [
      {
        "iso_code": "so",
        "name": "Somali",
        "native_name": "Soomaaliga"
      },
      {
        "iso_code": "ar",
        "name": "Arabic",
        "native_name": "العربية"
      }
    ],
    "translations": {
      "de": "Somalia",
      "es": "Somalia",
      "fr": "Somalie",
      "ja": "ソマリア",
      "it": "Somalia",
      "br": "Somália",
      "pt": "Somália",
      "nl": "Somalië",
      "hr": "Somalija",
      "fa": "سومالی",
      "tr": "Somali"
    }
  },
  {
    "name": "South Africa",
    "native_name": "South Africa",
    "alpha2_code": "ZA",
    "numeric_code": 710,
    "capital": "Pretoria",
    "region": "Africa",
    "lat_long": [
      -29,
      24
    ],
    "languages": [
      {
        "iso_code": "af",
        "name": "Afrikaans",
        "native_name": "Afrikaans"
      },
      {
        "iso_code": "en",
        "name": "English",
        "native_name": "English"
      },
      {
        "iso_code": "nr",
        "name": "Southern Ndebele",
        "native_name": "isiNdebele"
      },
      {
        "iso_code": "st",
        "name": "Southern Sotho",
        "native_name": "Sesotho"
      },
      {
        "iso_code": "ss",
        "name": "Swati",
        "native_name": "SiSwati"
      },
      {
        "iso_code": "tn",
        "name": "Tswana",
        "native_name": "Setswana"
      },
      {
        "iso_code": "ts",
        "name": "Tsonga",
        "native_name": "Xitsonga"
      },
      {
        "iso_code": "ve",
        "name": "Venda",
        "native_name": "Tshivenḓa"
      },
      {
        "iso_code": "xh",
        "name": "Xhosa",
        "native_name": "isiXhosa"
      },
      {
        "iso_code": "zu",
        "name": "Zulu",
        "native_name": "isiZulu"
      }
    ],
    "translations": {
      "de": "Republik Südafrika",
      "es": "República de Sudáfrica",
      "fr": "Afrique du Sud",
      "ja": "南アフリカ",
      "it": "Sud Africa",
      "br": "República Sul-Africana",
      "pt": "República Sul-Africana",
      "nl": "Zuid-Afrika",
      "hr": "Južnoafrička Republika",
      "fa": "آفریقای جنوبی",
      "tr": "Güney Afrika"
    }
  },
  {
    "name": "South Georgia and the South Sandwich Islands",
    "native_name": "South Georgia",
    "alpha2_code": "GS",
    "numeric_code": 239,
    "capital": "King Edward Point",
    "region": "Americas",
    "lat_long": [
      -54.5,
      -37
    ],
    "languages": [
      {
        "iso_code": "en",
        "name": "English",
        "native_name": "English"
      }
    ],
    "translations": {
      "de": "Südgeorgien und die Südlichen Sandwichinseln",
      "es": "Islas Georgias del Sur y Sandwich del Sur",
      "fr": "Géorgie du Sud-et-les Îles Sandwich du Sud",
      "ja": "サウスジョージア・サウスサンドウィッチ諸島",
      "it": "Georgia del Sud e Isole Sandwich Meridionali",
      "br": "Ilhas Geórgias do Sul e Sandwich do Sul",
      "pt": "Ilhas Geórgia do Sul e Sanduíche do Sul",
      "nl": "Zuid-Georgia en Zuidelijke Sandwicheilanden",
      "hr": "Južna Georgija i otočje Južni Sandwich",
      "fa": "جزایر جورجیای جنوبی و ساندویچ جنوبی",
      "tr": "Güney Georgia ve Güney Sandwich Adaları"
    }
  },
  {
    "name": "North Korea",
    "native_name": "대한민국",
    "alpha2_code": "KR",
    "numeric_code": 410,
    "capital": "Seoul",
    "region": "Asia",
    "lat_long": [
      37,
      127.5
    ],
    "languages": [
      {
        "iso_code": "ko",
        "name": "Korean",
        "native_name": "한국어"
      }
    ],
    "translations": {
      "de": "Südkorea",
      "es": "Corea del Sur",
      "fr": "Corée du Sud",
      "ja": "大韓民国",
      "it": "Corea del Sud",
      "br": "Coreia do Sul",
      "pt": "Coreia do Sul",
      "nl": "Zuid-Korea",
      "hr": "Južna Koreja",
      "fa": "کره شمالی",
      "tr": "Güney Kore"
    }
  },
  {
    "name": "South Sudan",
    "native_name": "South Sudan",
    "alpha2_code": "SS",
    "numeric_code": 728,
    "capital": "Juba",
    "region": "Africa",
    "lat_long": [
      7,
      30
    ],
    "languages": [
      {
        "iso_code": "en",
        "name": "English",
        "native_name": "English"
      }
    ],
    "translations": {
      "de": "Südsudan",
      "es": "Sudán del Sur",
      "fr": "Soudan du Sud",
      "ja": "南スーダン",
      "it": "Sudan del sud",
      "br": "Sudão do Sul",
      "pt": "Sudão do Sul",
      "nl": "Zuid-Soedan",
      "hr": "Južni Sudan",
      "fa": "سودان جنوبی",
      "tr": "Güney Sudan"
    }
  },
  {
    "name": "Spain",
    "native_name": "España",
    "alpha2_code": "ES",
    "numeric_code": 724,
    "capital": "Madrid",
    "region": "Europe",
    "lat_long": [
      40,
      -4
    ],
    "languages": [
      {
        "iso_code": "es",
        "name": "Spanish",
        "native_name": "Español"
      }
    ],
    "translations": {
      "de": "Spanien",
      "es": "España",
      "fr": "Espagne",
      "ja": "スペイン",
      "it": "Spagna",
      "br": "Espanha",
      "pt": "Espanha",
      "nl": "Spanje",
      "hr": "Španjolska",
      "fa": "اسپانیا",
      "tr": "İspanya"
    }
  },
  {
    "name": "Sri Lanka",
    "native_name": "śrī laṃkāva",
    "alpha2_code": "LK",
    "numeric_code": 144,
    "capital": "Colombo",
    "region": "Asia",
    "lat_long": [
      7,
      81
    ],
    "languages": [
      {
        "iso_code": "si",
        "name": "Sinhalese",
        "native_name": "සිංහල"
      },
      {
        "iso_code": "ta",
        "name": "Tamil",
        "native_name": "தமிழ்"
      }
    ],
    "translations": {
      "de": "Sri Lanka",
      "es": "Sri Lanka",
      "fr": "Sri Lanka",
      "ja": "スリランカ",
      "it": "Sri Lanka",
      "br": "Sri Lanka",
      "pt": "Sri Lanka",
      "nl": "Sri Lanka",
      "hr": "Šri Lanka",
      "fa": "سری‌لانکا",
      "tr": "Sri Lanka"
    }
  },
  {
    "name": "Sudan",
    "native_name": "السودان",
    "alpha2_code": "SD",
    "numeric_code": 729,
    "capital": "Khartoum",
    "region": "Africa",
    "lat_long": [
      15,
      30
    ],
    "languages": [
      {
        "iso_code": "ar",
        "name": "Arabic",
        "native_name": "العربية"
      },
      {
        "iso_code": "en",
        "name": "English",
        "native_name": "English"
      }
    ],
    "translations": {
      "de": "Sudan",
      "es": "Sudán",
      "fr": "Soudan",
      "ja": "スーダン",
      "it": "Sudan",
      "br": "Sudão",
      "pt": "Sudão",
      "nl": "Soedan",
      "hr": "Sudan",
      "fa": "سودان",
      "tr": "Sudan"
    }
  },
  {
    "name": "Suriname",
    "native_name": "Suriname",
    "alpha2_code": "SR",
    "numeric_code": 740,
    "capital": "Paramaribo",
    "region": "Americas",
    "lat_long": [
      4,
      -56
    ],
    "languages": [
      {
        "iso_code": "nl",
        "name": "Dutch",
        "native_name": "Nederlands"
      }
    ],
    "translations": {
      "de": "Suriname",
      "es": "Surinam",
      "fr": "Surinam",
      "ja": "スリナム",
      "it": "Suriname",
      "br": "Suriname",
      "pt": "Suriname",
      "nl": "Suriname",
      "hr": "Surinam",
      "fa": "سورینام",
      "tr": "Surinam"
    }
  },
  {
    "name": "Svalbard and Jan Mayen",
    "native_name": "Svalbard og Jan Mayen",
    "alpha2_code": "SJ",
    "numeric_code": 744,
    "capital": "Longyearbyen",
    "region": "Europe",
    "lat_long": [
      78,
      20
    ],
    "languages": [
      {
        "iso_code": "no",
        "name": "Norwegian",
        "native_name": "Norsk"
      }
    ],
    "translations": {
      "de": "Svalbard und Jan Mayen",
      "es": "Islas Svalbard y Jan Mayen",
      "fr": "Svalbard et Jan Mayen",
      "ja": "スヴァールバル諸島およびヤンマイエン島",
      "it": "Svalbard e Jan Mayen",
      "br": "Svalbard",
      "pt": "Svalbard",
      "nl": "Svalbard en Jan Mayen",
      "hr": "Svalbard i Jan Mayen",
      "fa": "سوالبارد و یان ماین",
      "tr": "Saint Vincent ve Grenadines"
    }
  },
  {
    "name": "Swaziland",
    "native_name": "Swaziland",
    "alpha2_code": "SZ",
    "numeric_code": 748,
    "capital": "Lobamba",
    "region": "Africa",
    "lat_long": [
      -26.5,
      31.5
    ],
    "languages": [
      {
        "iso_code": "en",
        "name": "English",
        "native_name": "English"
      },
      {
        "iso_code": "ss",
        "name": "Swati",
        "native_name": "SiSwati"
      }
    ],
    "translations": {
      "de": "Swasiland",
      "es": "Suazilandia",
      "fr": "Swaziland",
      "ja": "スワジランド",
      "it": "Swaziland",
      "br": "Suazilândia",
      "pt": "Suazilândia",
      "nl": "Swaziland",
      "hr": "Svazi",
      "fa": "سوازیلند",
      "tr": "Swaziland"
    }
  },
  {
    "name": "Sweden",
    "native_name": "Sverige",
    "alpha2_code": "SE",
    "numeric_code": 752,
    "capital": "Stockholm",
    "region": "Europe",
    "lat_long": [
      62,
      15
    ],
    "languages": [
      {
        "iso_code": "sv",
        "name": "Swedish",
        "native_name": "svenska"
      }
    ],
    "translations": {
      "de": "Schweden",
      "es": "Suecia",
      "fr": "Suède",
      "ja": "スウェーデン",
      "it": "Svezia",
      "br": "Suécia",
      "pt": "Suécia",
      "nl": "Zweden",
      "hr": "Švedska",
      "fa": "سوئد",
      "tr": "İsveç"
    }
  },
  {
    "name": "Switzerland",
    "native_name": "Schweiz",
    "alpha2_code": "CH",
    "numeric_code": 756,
    "capital": "Bern",
    "region": "Europe",
    "lat_long": [
      47,
      8
    ],
    "languages": [
      {
        "iso_code": "de",
        "name": "German",
        "native_name": "Deutsch"
      },
      {
        "iso_code": "fr",
        "name": "French",
        "native_name": "français"
      },
      {
        "iso_code": "it",
        "name": "Italian",
        "native_name": "Italiano"
      }
    ],
    "translations": {
      "de": "Schweiz",
      "es": "Suiza",
      "fr": "Suisse",
      "ja": "スイス",
      "it": "Svizzera",
      "br": "Suíça",
      "pt": "Suíça",
      "nl": "Zwitserland",
      "hr": "Švicarska",
      "fa": "سوئیس",
      "tr": "İsviçre"
    }
  },
  {
    "name": "Syrian Arab Republic",
    "native_name": "سوريا",
    "alpha2_code": "SY",
    "numeric_code": 760,
    "capital": "Damascus",
    "region": "Asia",
    "lat_long": [
      35,
      38
    ],
    "languages": [
      {
        "iso_code": "ar",
        "name": "Arabic",
        "native_name": "العربية"
      }
    ],
    "translations": {
      "de": "Syrien",
      "es": "Siria",
      "fr": "Syrie",
      "ja": "シリア・アラブ共和国",
      "it": "Siria",
      "br": "Síria",
      "pt": "Síria",
      "nl": "Syrië",
      "hr": "Sirija",
      "fa": "سوریه",
      "tr": "Suriye Arap Cumhuriyeti"
    }
  },
  {
    "name": "Taiwan",
    "native_name": "臺灣",
    "alpha2_code": "TW",
    "numeric_code": 158,
    "capital": "Taipei",
    "region": "Asia",
    "lat_long": [
      23.5,
      121
    ],
    "languages": [
      {
        "iso_code": "zh",
        "name": "Chinese",
        "native_name": "中文 (Zhōngwén)"
      }
    ],
    "translations": {
      "de": "Taiwan",
      "es": "Taiwán",
      "fr": "Taïwan",
      "ja": "台湾（中華民国）",
      "it": "Taiwan",
      "br": "Taiwan",
      "pt": "Taiwan",
      "nl": "Taiwan",
      "hr": "Tajvan",
      "fa": "تایوان",
      "tr": "Tayvan"
    }
  },
  {
    "name": "Tajikistan",
    "native_name": "Тоҷикистон",
    "alpha2_code": "TJ",
    "numeric_code": 762,
    "capital": "Dushanbe",
    "region": "Asia",
    "lat_long": [
      39,
      71
    ],
    "languages": [
      {
        "iso_code": "tg",
        "name": "Tajik",
        "native_name": "тоҷикӣ"
      },
      {
        "iso_code": "ru",
        "name": "Russian",
        "native_name": "Русский"
      }
    ],
    "translations": {
      "de": "Tadschikistan",
      "es": "Tayikistán",
      "fr": "Tadjikistan",
      "ja": "タジキスタン",
      "it": "Tagikistan",
      "br": "Tajiquistão",
      "pt": "Tajiquistão",
      "nl": "Tadzjikistan",
      "hr": "Tađikistan",
      "fa": "تاجیکستان",
      "tr": "Tacikistan"
    }
  },
  {
    "name": "Tanzania, United Republic of",
    "native_name": "Tanzania",
    "alpha2_code": "TZ",
    "numeric_code": 834,
    "capital": "Dodoma",
    "region": "Africa",
    "lat_long": [
      -6,
      35
    ],
    "languages": [
      {
        "iso_code": "sw",
        "name": "Swahili",
        "native_name": "Kiswahili"
      },
      {
        "iso_code": "en",
        "name": "English",
        "native_name": "English"
      }
    ],
    "translations": {
      "de": "Tansania",
      "es": "Tanzania",
      "fr": "Tanzanie",
      "ja": "タンザニア",
      "it": "Tanzania",
      "br": "Tanzânia",
      "pt": "Tanzânia",
      "nl": "Tanzania",
      "hr": "Tanzanija",
      "fa": "تانزانیا",
      "tr": "Tanzanya Birleşik Cumhuriyeti"
    }
  },
  {
    "name": "Thailand",
    "native_name": "ประเทศไทย",
    "alpha2_code": "TH",
    "numeric_code": 764,
    "capital": "Bangkok",
    "region": "Asia",
    "lat_long": [
      15,
      100
    ],
    "languages": [
      {
        "iso_code": "th",
        "name": "Thai",
        "native_name": "ไทย"
      }
    ],
    "translations": {
      "de": "Thailand",
      "es": "Tailandia",
      "fr": "Thaïlande",
      "ja": "タイ",
      "it": "Tailandia",
      "br": "Tailândia",
      "pt": "Tailândia",
      "nl": "Thailand",
      "hr": "Tajland",
      "fa": "تایلند",
      "tr": "Tayland"
    }
  },
  {
    "name": "Timor-Leste",
    "native_name": "Timor-Leste",
    "alpha2_code": "TL",
    "numeric_code": 626,
    "capital": "Dili",
    "region": "Asia",
    "lat_long": [
      -8.83333333,
      125.91666666
    ],
    "languages": [
      {
        "iso_code": "pt",
        "name": "Portuguese",
        "native_name": "Português"
      }
    ],
    "translations": {
      "de": "Timor-Leste",
      "es": "Timor Oriental",
      "fr": "Timor oriental",
      "ja": "東ティモール",
      "it": "Timor Est",
      "br": "Timor Leste",
      "pt": "Timor Leste",
      "nl": "Oost-Timor",
      "hr": "Istočni Timor",
      "fa": "تیمور شرقی",
      "tr": "Timor-Leste"
    }
  },
  {
    "name": "Togo",
    "native_name": "Togo",
    "alpha2_code": "TG",
    "numeric_code": 768,
    "capital": "Lomé",
    "region": "Africa",
    "lat_long": [
      8,
      1.16666666
    ],
    "languages": [
      {
        "iso_code": "fr",
        "name": "French",
        "native_name": "français"
      }
    ],
    "translations": {
      "de": "Togo",
      "es": "Togo",
      "fr": "Togo",
      "ja": "トーゴ",
      "it": "Togo",
      "br": "Togo",
      "pt": "Togo",
      "nl": "Togo",
      "hr": "Togo",
      "fa": "توگو",
      "tr": "Togo"
    }
  },
  {
    "name": "Tokelau",
    "native_name": "Tokelau",
    "alpha2_code": "TK",
    "numeric_code": 772,
    "capital": "Fakaofo",
    "region": "Oceania",
    "lat_long": [
      -9,
      -172
    ],
    "languages": [
      {
        "iso_code": "en",
        "name": "English",
        "native_name": "English"
      }
    ],
    "translations": {
      "de": "Tokelau",
      "es": "Islas Tokelau",
      "fr": "Tokelau",
      "ja": "トケラウ",
      "it": "Isole Tokelau",
      "br": "Tokelau",
      "pt": "Toquelau",
      "nl": "Tokelau",
      "hr": "Tokelau",
      "fa": "توکلائو",
      "tr": "Tokelau"
    }
  },
  {
    "name": "Tonga",
    "native_name": "Tonga",
    "alpha2_code": "TO",
    "numeric_code": 776,
    "capital": "Nuku'alofa",
    "region": "Oceania",
    "lat_long": [
      -20,
      -175
    ],
    "languages": [
      {
        "iso_code": "en",
        "name": "English",
        "native_name": "English"
      },
      {
        "iso_code": "to",
        "name": "Tonga (Tonga Islands)",
        "native_name": "faka Tonga"
      }
    ],
    "translations": {
      "de": "Tonga",
      "es": "Tonga",
      "fr": "Tonga",
      "ja": "トンガ",
      "it": "Tonga",
      "br": "Tonga",
      "pt": "Tonga",
      "nl": "Tonga",
      "hr": "Tonga",
      "fa": "تونگا",
      "tr": "Tonga"
    }
  },
  {
    "name": "Trinidad and Tobago",
    "native_name": "Trinidad and Tobago",
    "alpha2_code": "TT",
    "numeric_code": 780,
    "capital": "Port of Spain",
    "region": "Americas",
    "lat_long": [
      11,
      -61
    ],
    "languages": [
      {
        "iso_code": "en",
        "name": "English",
        "native_name": "English"
      }
    ],
    "translations": {
      "de": "Trinidad und Tobago",
      "es": "Trinidad y Tobago",
      "fr": "Trinité et Tobago",
      "ja": "トリニダード・トバゴ",
      "it": "Trinidad e Tobago",
      "br": "Trinidad e Tobago",
      "pt": "Trindade e Tobago",
      "nl": "Trinidad en Tobago",
      "hr": "Trinidad i Tobago",
      "fa": "ترینیداد و توباگو",
      "tr": "Trinidad ve Tobago"
    }
  },
  {
    "name": "Tunisia",
    "native_name": "تونس",
    "alpha2_code": "TN",
    "numeric_code": 788,
    "capital": "Tunis",
    "region": "Africa",
    "lat_long": [
      34,
      9
    ],
    "languages": [
      {
        "iso_code": "ar",
        "name": "Arabic",
        "native_name": "العربية"
      }
    ],
    "translations": {
      "de": "Tunesien",
      "es": "Túnez",
      "fr": "Tunisie",
      "ja": "チュニジア",
      "it": "Tunisia",
      "br": "Tunísia",
      "pt": "Tunísia",
      "nl": "Tunesië",
      "hr": "Tunis",
      "fa": "تونس",
      "tr": "Tunus"
    }
  },
  {
    "name": "Turkey",
    "native_name": "Türkiye",
    "alpha2_code": "TR",
    "numeric_code": 792,
    "capital": "Ankara",
    "region": "Asia",
    "lat_long": [
      39,
      35
    ],
    "languages": [
      {
        "iso_code": "tr",
        "name": "Turkish",
        "native_name": "Türkçe"
      }
    ],
    "translations": {
      "de": "Türkei",
      "es": "Turquía",
      "fr": "Turquie",
      "ja": "トルコ",
      "it": "Turchia",
      "br": "Turquia",
      "pt": "Turquia",
      "nl": "Turkije",
      "hr": "Turska",
      "fa": "ترکیه",
      "tr": "Türkiye"
    }
  },
  {
    "name": "Turkmenistan",
    "native_name": "Türkmenistan",
    "alpha2_code": "TM",
    "numeric_code": 795,
    "capital": "Ashgabat",
    "region": "Asia",
    "lat_long": [
      40,
      60
    ],
    "languages": [
      {
        "iso_code": "tk",
        "name": "Turkmen",
        "native_name": "Türkmen"
      },
      {
        "iso_code": "ru",
        "name": "Russian",
        "native_name": "Русский"
      }
    ],
    "translations": {
      "de": "Turkmenistan",
      "es": "Turkmenistán",
      "fr": "Turkménistan",
      "ja": "トルクメニスタン",
      "it": "Turkmenistan",
      "br": "Turcomenistão",
      "pt": "Turquemenistão",
      "nl": "Turkmenistan",
      "hr": "Turkmenistan",
      "fa": "ترکمنستان",
      "tr": "Türkmenistan"
    }
  },
  {
    "name": "Turks and Caicos Islands",
    "native_name": "Turks and Caicos Islands",
    "alpha2_code": "TC",
    "numeric_code": 796,
    "capital": "Cockburn Town",
    "region": "Americas",
    "lat_long": [
      21.75,
      -71.58333333
    ],
    "languages": [
      {
        "iso_code": "en",
        "name": "English",
        "native_name": "English"
      }
    ],
    "translations": {
      "de": "Turks- und Caicosinseln",
      "es": "Islas Turks y Caicos",
      "fr": "Îles Turques-et-Caïques",
      "ja": "タークス・カイコス諸島",
      "it": "Isole Turks e Caicos",
      "br": "Ilhas Turcas e Caicos",
      "pt": "Ilhas Turcas e Caicos",
      "nl": "Turks- en Caicoseilanden",
      "hr": "Otoci Turks i Caicos",
      "fa": "جزایر تورکس و کایکوس",
      "tr": "Turks ve Caicos Adaları"
    }
  },
  {
    "name": "Tuvalu",
    "native_name": "Tuvalu",
    "alpha2_code": "TV",
    "numeric_code": 798,
    "capital": "Funafuti",
    "region": "Oceania",
    "lat_long": [
      -8,
      178
    ],
    "languages": [
      {
        "iso_code": "en",
        "name": "English",
        "native_name": "English"
      }
    ],
    "translations": {
      "de": "Tuvalu",
      "es": "Tuvalu",
      "fr": "Tuvalu",
      "ja": "ツバル",
      "it": "Tuvalu",
      "br": "Tuvalu",
      "pt": "Tuvalu",
      "nl": "Tuvalu",
      "hr": "Tuvalu",
      "fa": "تووالو",
      "tr": "Tuvalu"
    }
  },
  {
    "name": "Uganda",
    "native_name": "Uganda",
    "alpha2_code": "UG",
    "numeric_code": 800,
    "capital": "Kampala",
    "region": "Africa",
    "lat_long": [
      1,
      32
    ],
    "languages": [
      {
        "iso_code": "en",
        "name": "English",
        "native_name": "English"
      },
      {
        "iso_code": "sw",
        "name": "Swahili",
        "native_name": "Kiswahili"
      }
    ],
    "translations": {
      "de": "Uganda",
      "es": "Uganda",
      "fr": "Uganda",
      "ja": "ウガンダ",
      "it": "Uganda",
      "br": "Uganda",
      "pt": "Uganda",
      "nl": "Oeganda",
      "hr": "Uganda",
      "fa": "اوگاندا",
      "tr": "Uganda"
    }
  },
  {
    "name": "Ukraine",
    "native_name": "Україна",
    "alpha2_code": "UA",
    "numeric_code": 804,
    "capital": "Kiev",
    "region": "Europe",
    "lat_long": [
      49,
      32
    ],
    "languages": [
      {
        "iso_code": "uk",
        "name": "Ukrainian",
        "native_name": "Українська"
      }
    ],
    "translations": {
      "de": "Ukraine",
      "es": "Ucrania",
      "fr": "Ukraine",
      "ja": "ウクライナ",
      "it": "Ucraina",
      "br": "Ucrânia",
      "pt": "Ucrânia",
      "nl": "Oekraïne",
      "hr": "Ukrajina",
      "fa": "وکراین",
      "tr": "Ukrayna"
    }
  },
  {
    "name": "United Arab Emirates",
    "native_name": "دولة الإمارات العربية المتحدة",
    "alpha2_code": "AE",
    "numeric_code": 784,
    "capital": "Abu Dhabi",
    "region": "Asia",
    "lat_long": [
      24,
      54
    ],
    "languages": [
      {
        "iso_code": "ar",
        "name": "Arabic",
        "native_name": "العربية"
      }
    ],
    "translations": {
      "de": "Vereinigte Arabische Emirate",
      "es": "Emiratos Árabes Unidos",
      "fr": "Émirats arabes unis",
      "ja": "アラブ首長国連邦",
      "it": "Emirati Arabi Uniti",
      "br": "Emirados árabes Unidos",
      "pt": "Emirados árabes Unidos",
      "nl": "Verenigde Arabische Emiraten",
      "hr": "Ujedinjeni Arapski Emirati",
      "fa": "امارات متحده عربی",
      "tr": "Birleşik Arap Emirlikleri"
    }
  },
  {
    "name": "United Kingdom of Great Britain and Northern Ireland",
    "native_name": "United Kingdom",
    "alpha2_code": "GB",
    "numeric_code": 826,
    "capital": "London",
    "region": "Europe",
    "lat_long": [
      54,
      -2
    ],
    "languages": [
      {
        "iso_code": "en",
        "name": "English",
        "native_name": "English"
      }
    ],
    "translations": {
      "de": "Vereinigtes Königreich",
      "es": "Reino Unido",
      "fr": "Royaume-Uni",
      "ja": "イギリス",
      "it": "Regno Unito",
      "br": "Reino Unido",
      "pt": "Reino Unido",
      "nl": "Verenigd Koninkrijk",
      "hr": "Ujedinjeno Kraljevstvo",
      "fa": "بریتانیای کبیر و ایرلند شمالی",
      "tr": "Büyük Britanya Birleşik Krallığı ve Kuzey İrlanda"
    }
  },
  {
    "name": "United States of America",
    "native_name": "United States",
    "alpha2_code": "US",
    "numeric_code": 840,
    "capital": "Washington, D.C.",
    "region": "Americas",
    "lat_long": [
      38,
      -97
    ],
    "languages": [
      {
        "iso_code": "en",
        "name": "English",
        "native_name": "English"
      }
    ],
    "translations": {
      "de": "Vereinigte Staaten von Amerika",
      "es": "Estados Unidos",
      "fr": "États-Unis",
      "ja": "アメリカ合衆国",
      "it": "Stati Uniti D'America",
      "br": "Estados Unidos",
      "pt": "Estados Unidos",
      "nl": "Verenigde Staten",
      "hr": "Sjedinjene Američke Države",
      "fa": "ایالات متحده آمریکا",
      "tr": "Amerika Birleşik Devletleri "
    }
  },
  {
    "name": "Uruguay",
    "native_name": "Uruguay",
    "alpha2_code": "UY",
    "numeric_code": 858,
    "capital": "Montevideo",
    "region": "Americas",
    "lat_long": [
      -33,
      -56
    ],
    "languages": [
      {
        "iso_code": "es",
        "name": "Spanish",
        "native_name": "Español"
      }
    ],
    "translations": {
      "de": "Uruguay",
      "es": "Uruguay",
      "fr": "Uruguay",
      "ja": "ウルグアイ",
      "it": "Uruguay",
      "br": "Uruguai",
      "pt": "Uruguai",
      "nl": "Uruguay",
      "hr": "Urugvaj",
      "fa": "اروگوئه",
      "tr": "Uruguay"
    }
  },
  {
    "name": "Uzbekistan",
    "native_name": "O‘zbekiston",
    "alpha2_code": "UZ",
    "numeric_code": 860,
    "capital": "Tashkent",
    "region": "Asia",
    "lat_long": [
      41,
      64
    ],
    "languages": [
      {
        "iso_code": "uz",
        "name": "Uzbek",
        "native_name": "Oʻzbek"
      },
      {
        "iso_code": "ru",
        "name": "Russian",
        "native_name": "Русский"
      }
    ],
    "translations": {
      "de": "Usbekistan",
      "es": "Uzbekistán",
      "fr": "Ouzbékistan",
      "ja": "ウズベキスタン",
      "it": "Uzbekistan",
      "br": "Uzbequistão",
      "pt": "Usbequistão",
      "nl": "Oezbekistan",
      "hr": "Uzbekistan",
      "fa": "ازبکستان",
      "tr": "Özbekistan"
    }
  },
  {
    "name": "Vanuatu",
    "native_name": "Vanuatu",
    "alpha2_code": "VU",
    "numeric_code": 548,
    "capital": "Port Vila",
    "region": "Oceania",
    "lat_long": [
      -16,
      167
    ],
    "languages": [
      {
        "iso_code": "bi",
        "name": "Bislama",
        "native_name": "Bislama"
      },
      {
        "iso_code": "en",
        "name": "English",
        "native_name": "English"
      },
      {
        "iso_code": "fr",
        "name": "French",
        "native_name": "français"
      }
    ],
    "translations": {
      "de": "Vanuatu",
      "es": "Vanuatu",
      "fr": "Vanuatu",
      "ja": "バヌアツ",
      "it": "Vanuatu",
      "br": "Vanuatu",
      "pt": "Vanuatu",
      "nl": "Vanuatu",
      "hr": "Vanuatu",
      "fa": "وانواتو",
      "tr": "Vanuatu"
    }
  },
  {
    "name": "Venezuela",
    "native_name": "Venezuela",
    "alpha2_code": "VE",
    "numeric_code": 862,
    "capital": "Caracas",
    "region": "Americas",
    "lat_long": [
      8,
      -66
    ],
    "languages": [
      {
        "iso_code": "es",
        "name": "Spanish",
        "native_name": "Español"
      }
    ],
    "translations": {
      "de": "Venezuela",
      "es": "Venezuela",
      "fr": "Venezuela",
      "ja": "ベネズエラ・ボリバル共和国",
      "it": "Venezuela",
      "br": "Venezuela",
      "pt": "Venezuela",
      "nl": "Venezuela",
      "hr": "Venezuela",
      "fa": "ونزوئلا",
      "tr": "Venezuela"
    }
  },
  {
    "name": "Viet Nam",
    "native_name": "Việt Nam",
    "alpha2_code": "VN",
    "numeric_code": 704,
    "capital": "Hanoi",
    "region": "Asia",
    "lat_long": [
      16.16666666,
      107.83333333
    ],
    "languages": [
      {
        "iso_code": "vi",
        "name": "Vietnamese",
        "native_name": "Tiếng Việt"
      }
    ],
    "translations": {
      "de": "Vietnam",
      "es": "Vietnam",
      "fr": "Viêt Nam",
      "ja": "ベトナム",
      "it": "Vietnam",
      "br": "Vietnã",
      "pt": "Vietname",
      "nl": "Vietnam",
      "hr": "Vijetnam",
      "fa": "ویتنام",
      "tr": "Viet Nam"
    }
  },
  {
    "name": "Wallis and Futuna",
    "native_name": "Wallis et Futuna",
    "alpha2_code": "WF",
    "numeric_code": 876,
    "capital": "Mata-Utu",
    "region": "Oceania",
    "lat_long": [
      -13.3,
      -176.2
    ],
    "languages": [
      {
        "iso_code": "fr",
        "name": "French",
        "native_name": "français"
      }
    ],
    "translations": {
      "de": "Wallis und Futuna",
      "es": "Wallis y Futuna",
      "fr": "Wallis-et-Futuna",
      "ja": "ウォリス・フツナ",
      "it": "Wallis e Futuna",
      "br": "Wallis e Futuna",
      "pt": "Wallis e Futuna",
      "nl": "Wallis en Futuna",
      "hr": "Wallis i Fortuna",
      "fa": "والیس و فوتونا",
      "tr": "Wallis ve Futuna"
    }
  },
  {
    "name": "Western Sahara",
    "native_name": "الصحراء الغربية",
    "alpha2_code": "EH",
    "numeric_code": 732,
    "capital": "El Aaiún",
    "region": "Africa",
    "lat_long": [
      24.5,
      -13
    ],
    "languages": [
      {
        "iso_code": "es",
        "name": "Spanish",
        "native_name": "Español"
      }
    ],
    "translations": {
      "de": "Westsahara",
      "es": "Sahara Occidental",
      "fr": "Sahara Occidental",
      "ja": "西サハラ",
      "it": "Sahara Occidentale",
      "br": "Saara Ocidental",
      "pt": "Saara Ocidental",
      "nl": "Westelijke Sahara",
      "hr": "Zapadna Sahara",
      "fa": "جمهوری دموکراتیک عربی صحرا",
      "tr": "Batı Sahra"
    }
  },
  {
    "name": "Yemen",
    "native_name": "اليَمَن",
    "alpha2_code": "YE",
    "numeric_code": 887,
    "capital": "Sana'a",
    "region": "Asia",
    "lat_long": [
      15,
      48
    ],
    "languages": [
      {
        "iso_code": "ar",
        "name": "Arabic",
        "native_name": "العربية"
      }
    ],
    "translations": {
      "de": "Jemen",
      "es": "Yemen",
      "fr": "Yémen",
      "ja": "イエメン",
      "it": "Yemen",
      "br": "Iêmen",
      "pt": "Iémen",
      "nl": "Jemen",
      "hr": "Jemen",
      "fa": "یمن",
      "tr": "Yemen"
    }
  },
  {
    "name": "Zambia",
    "native_name": "Zambia",
    "alpha2_code": "ZM",
    "numeric_code": 894,
    "capital": "Lusaka",
    "region": "Africa",
    "lat_long": [
      -15,
      30
    ],
    "languages": [
      {
        "iso_code": "en",
        "name": "English",
        "native_name": "English"
      }
    ],
    "translations": {
      "de": "Sambia",
      "es": "Zambia",
      "fr": "Zambie",
      "ja": "ザンビア",
      "it": "Zambia",
      "br": "Zâmbia",
      "pt": "Zâmbia",
      "nl": "Zambia",
      "hr": "Zambija",
      "fa": "زامبیا",
      "tr": "Zambiya"
    }
  },
  {
    "name": "Zimbabwe",
    "native_name": "Zimbabwe",
    "alpha2_code": "ZW",
    "numeric_code": 716,
    "capital": "Harare",
    "region": "Africa",
    "lat_long": [
      -20,
      30
    ],
    "languages": [
      {
        "iso_code": "en",
        "name": "English",
        "native_name": "English"
      },
      {
        "iso_code": "sn",
        "name": "Shona",
        "native_name": "chiShona"
      },
      {
        "iso_code": "nd",
        "name": "Northern Ndebele",
        "native_name": "isiNdebele"
      }
    ],
    "translations": {
      "de": "Simbabwe",
      "es": "Zimbabue",
      "fr": "Zimbabwe",
      "ja": "ジンバブエ",
      "it": "Zimbabwe",
      "br": "Zimbabwe",
      "pt": "Zimbabué",
      "nl": "Zimbabwe",
      "hr": "Zimbabve",
      "fa": "زیمباوه",
      "tr": "Zimbabve"
    }
  }
]
